{"type":"FeatureCollection","features":[{"type":"Feature","properties":{"kind":"border"},"geometry":{"type":"MultiLineString","coordinates":[[[70.95,42.25],[70.98,42.27]],[[70.98,42.27],[71.04,42.28]],[[71.04,42.28],[71.13,42.25]],[[71.13,42.25],[71.21,42.21]],[[71.21,42.21],[71.23,42.19]],[[71.23,42.19],[71.23,42.16]],[[71.23,42.16],[71.03,42.08]],[[71.03,42.08],[70.91,42.04]],[[70.91,42.04],[70.86,42.03]],[[70.86,42.03],[70.84,42.02]],[[70.84,42.02],[70.8,41.92]],[[70.8,41.92],[70.73,41.91]],[[70.73,41.91],[70.63,41.88]],[[70.63,41.88],[70.56,41.83]],[[70.56,41.83],[70.45,41.73]],[[70.45,41.73],[70.18,41.57]],[[70.18,41.57],[70.18,41.54]],[[70.18,41.54],[70.2,41.51]],[[70.2,41.51],[70.29,41.5]],[[70.29,41.5],[70.41,41.45]],[[70.41,41.45],[70.47,41.41]],[[70.47,41.41],[70.65,41.46]],[[70.65,41.46],[70.69,41.45]],[[70.69,41.45],[70.73,41.4]],[[70.73,41.4],[70.78,41.26]],[[70.78,41.26],[70.86,41.22]],[[70.86,41.22],[70.96,41.2]],[[70.96,41.2],[71.03,41.19]],[[71.03,41.19],[71.11,41.15]],[[71.11,41.15],[71.22,41.14]],[[71.22,41.14],[71.3,41.15]],[[71.3,41.15],[71.39,41.12]],[[71.39,41.12],[71.41,41.14]],[[71.41,41.14],[71.42,41.34]],[[71.42,41.34],[71.5,41.31]],[[71.5,41.31],[71.55,41.31]],[[71.55,41.31],[71.59,41.33]],[[71.59,41.33],[71.61,41.37]],[[71.61,41.37],[71.62,41.44]],[[71.62,41.44],[71.6,41.5]],[[71.6,41.5],[71.64,41.53]],[[71.64,41.53],[71.66,41.54]],[[71.66,41.54],[71.69,41.53]],[[71.69,41.53],[71.7,41.52]],[[71.7,41.52],[71.7,41.45]],[[71.7,41.45],[71.76,41.43]],[[71.76,41.43],[71.79,41.41]],[[71.79,41.41],[71.83,41.36]],[[71.83,41.36],[71.86,41.31]],[[71.86,41.31],[71.88,41.2]],[[71.88,41.2],[71.96,41.19]],[[71.96,41.19],[72.05,41.16]],[[72.05,41.16],[72.12,41.19]],[[72.12,41.19],[72.16,41.17]],[[72.16,41.17],[72.18,41.12]],[[72.18,41.12],[72.18,41.07]],[[72.18,41.07],[72.19,41.03]],[[72.19,41.03],[72.21,41.01]],[[72.21,41.01],[72.29,41.04]],[[72.29,41.04],[72.36,41.04]],[[72.36,41.04],[72.43,41.02]],[[72.43,41.02],[72.51,40.98]],[[72.51,40.98],[72.62,40.88]],[[72.62,40.88],[72.66,40.87]],[[72.66,40.87],[72.83,40.86]],[[72.83,40.86],[72.87,40.84]],[[72.87,40.84],[72.93,40.84]],[[72.93,40.84],[72.99,40.86]],[[72.99,40.86],[73.13,40.83]],[[73.13,40.83],[73.14,40.81]],[[73.14,40.81],[73.11,40.79]],[[73.11,40.79],[72.77,40.65]],[[72.77,40.65],[72.75,40.61]],[[72.75,40.61],[72.68,40.56]],[[72.68,40.56],[72.6,40.53]],[[72.6,40.53],[72.57,40.52]],[[72.57,40.52],[72.4,40.58]],[[72.4,40.58],[72.38,40.57]],[[72.38,40.57],[72.37,40.54]],[[72.37,40.54],[72.37,40.52]],[[72.37,40.52],[72.41,40.46]],[[72.41,40.46],[72.39,40.43]],[[72.39,40.43],[72.36,40.4]],[[72.36,40.4],[72.25,40.42]],[[72.25,40.42],[72.23,40.44]],[[72.23,40.44],[72.23,40.45]],[[72.23,40.45],[72.19,40.45]],[[72.19,40.45],[72.13,40.44]],[[72.13,40.44],[72.01,40.34]],[[72.01,40.34],[71.97,40.29]],[[71.97,40.29],[71.96,40.26]],[[71.96,40.26],[71.9,40.24]],[[71.9,40.24],[71.85,40.23]],[[71.85,40.23],[71.77,40.19]],[[71.77,40.19],[71.69,40.15]],[[71.69,40.15],[71.67,40.18]],[[71.67,40.18],[71.65,40.21]],[[71.65,40.21],[71.63,40.22]],[[71.63,40.22],[71.58,40.21]],[[71.58,40.21],[71.52,40.21]],[[71.52,40.21],[71.46,40.24]],[[71.46,40.24],[71.38,40.28]],[[71.38,40.28],[71.3,40.29]],[[71.3,40.29],[71.09,40.27]],[[71.09,40.27],[70.99,40.25]],[[70.99,40.25],[70.96,40.24]],[[70.96,40.24],[70.9,40.23]],[[70.9,40.23],[70.65,40.2]],[[70.65,40.2],[70.6,40.21]],[[70.6,40.21],[70.57,40.27]],[[70.57,40.27],[70.53,40.32]],[[70.53,40.32],[70.47,40.35]],[[70.47,40.35],[70.4,40.36]],[[70.4,40.36],[70.37,40.38]],[[70.37,40.38],[70.37,40.41]],[[70.37,40.41],[70.38,40.44]],[[70.38,40.44],[70.38,40.45]],[[70.38,40.45],[70.55,40.56]],[[70.55,40.56],[70.7,40.66]],[[70.7,40.66],[70.71,40.67]],[[70.71,40.67],[70.73,40.69]],[[70.73,40.69],[70.75,40.72]],[[70.75,40.72],[70.75,40.74]],[[70.75,40.74],[70.64,40.78]],[[70.64,40.78],[70.63,40.8]],[[70.63,40.8],[70.66,40.82]],[[70.66,40.82],[70.66,40.84]],[[70.66,40.84],[70.58,40.91]],[[70.58,40.91],[70.44,41.02]],[[70.44,41.02],[70.4,41.04]],[[70.4,41.04],[70.37,41.03]],[[70.37,41.03],[70.32,40.92]],[[70.32,40.92],[70.29,40.89]],[[70.29,40.89],[70.14,40.82]],[[70.14,40.82],[70.01,40.77]],[[70.01,40.77],[69.77,40.68]],[[69.77,40.68],[69.71,40.66]],[[69.71,40.66],[69.67,40.66]],[[69.67,40.66],[69.63,40.68]],[[69.63,40.68],[69.5,40.77]],[[69.5,40.77],[69.41,40.8]],[[69.41,40.8],[69.36,40.77]],[[69.36,40.77],[69.31,40.72]],[[69.31,40.72],[69.31,40.63]],[[69.31,40.63],[69.26,40.59]],[[69.26,40.59],[69.21,40.57]],[[69.21,40.57],[69.3,40.33]],[[69.3,40.33],[69.29,40.3]],[[69.29,40.3],[69.22,40.29]],[[69.22,40.29],[69.27,40.2]],[[69.27,40.2],[69.23,40.19]],[[69.23,40.19],[69.11,40.21]],[[69.11,40.21],[68.95,40.22]],[[68.95,40.22],[68.65,40.18]],[[68.65,40.18],[68.63,40.17]],[[68.63,40.17],[68.62,40.15]],[[68.62,40.15],[68.64,40.13]],[[68.64,40.13],[68.78,40.13]],[[68.78,40.13],[68.93,40.14]],[[68.93,40.14],[68.97,40.12]],[[68.97,40.12],[68.97,40.09]],[[68.97,40.09],[68.96,40.07]],[[68.96,40.07],[68.91,40.07]],[[68.91,40.07],[68.8,40.05]],[[68.8,40.05],[68.79,40.03]],[[68.79,40.03],[68.79,40.01]],[[68.79,40.01],[68.82,39.96]],[[68.82,39.96],[68.86,39.93]],[[68.86,39.93],[68.87,39.91]],[[68.87,39.91],[68.85,39.89]],[[68.85,39.89],[68.83,39.88]],[[68.83,39.88],[68.8,39.91]],[[68.8,39.91],[68.78,39.9]],[[68.78,39.9],[68.77,39.88]],[[68.77,39.88],[68.76,39.86]],[[68.76,39.86],[68.74,39.84]],[[68.74,39.84],[68.69,39.85]],[[68.69,39.85],[68.64,39.84]],[[68.64,39.84],[68.61,39.74]],[[68.61,39.74],[68.59,39.63]],[[68.59,39.63],[68.51,39.56]],[[68.51,39.56],[68.46,39.54]],[[68.46,39.54],[68.4,39.53]],[[68.4,39.53],[68.3,39.54]],[[68.3,39.54],[68.24,39.55]],[[68.24,39.55],[68.08,39.56]],[[68.08,39.56],[67.91,39.59]],[[67.91,39.59],[67.72,39.62]],[[67.72,39.62],[67.54,39.56]],[[67.54,39.56],[67.49,39.52]],[[67.49,39.52],[67.46,39.48]],[[67.46,39.48],[67.43,39.47]],[[67.43,39.47],[67.35,39.24]],[[67.35,39.24],[67.36,39.22]],[[67.36,39.22],[67.4,39.2]],[[67.4,39.2],[67.62,39.15]],[[67.62,39.15],[67.65,39.13]],[[67.65,39.13],[67.67,39.11]],[[67.67,39.11],[67.68,39.01]],[[67.68,39.01],[67.69,38.99]],[[67.69,38.99],[67.77,38.98]],[[67.77,38.98],[67.88,38.98]],[[67.88,38.98],[67.96,38.99]],[[67.96,38.99],[68.04,38.98]],[[68.04,38.98],[68.1,38.96]],[[68.1,38.96],[68.13,38.93]],[[68.13,38.93],[68.15,38.89]],[[68.15,38.89],[68.05,38.67]],[[68.05,38.67],[68.06,38.59]],[[68.06,38.59],[68.09,38.47]],[[68.09,38.47],[68.14,38.38]],[[68.14,38.38],[68.25,38.29]],[[68.25,38.29],[68.33,38.24]],[[68.33,38.24],[68.35,38.21]],[[68.35,38.21],[68.35,38.17]],[[68.35,38.17],[68.34,38.12]],[[68.34,38.12],[68.29,38.03]],[[68.29,38.03],[68.24,37.96]],[[68.24,37.96],[68.17,37.93]],[[68.17,37.93],[68.09,37.84]],[[68.09,37.84],[68.01,37.72]],[[68.01,37.72],[67.86,37.57]],[[67.86,37.57],[67.81,37.49]],[[67.81,37.49],[67.8,37.24]],[[67.8,37.24],[67.76,37.17]],[[67.76,37.17],[67.75,37.2]],[[67.75,37.2],[67.7,37.23]],[[67.7,37.23],[67.61,37.22]],[[67.61,37.22],[67.55,37.24]],[[67.55,37.24],[67.52,37.27]],[[67.52,37.27],[67.44,37.26]],[[67.44,37.26],[67.32,37.21]],[[67.32,37.21],[67.2,37.24]],[[67.2,37.24],[67.07,37.33]],[[67.07,37.33],[66.83,37.37]],[[66.83,37.37],[66.52,37.35]],[[66.52,37.35],[66.51,37.46]],[[66.51,37.46],[66.51,37.6]],[[66.51,37.6],[66.53,37.79]],[[66.53,37.79],[66.63,37.93]],[[66.63,37.93],[66.63,37.96]],[[66.63,37.96],[66.61,37.99]],[[66.61,37.99],[66.57,38.01]],[[66.57,38.01],[66.39,38.05]],[[66.39,38.05],[66.34,38.07]],[[66.34,38.07],[66.26,38.12]],[[66.26,38.12],[66.17,38.17]],[[66.17,38.17],[66.09,38.2]],[[66.09,38.2],[65.97,38.24]],[[65.97,38.24],[65.86,38.27]],[[65.86,38.27],[65.79,38.25]],[[65.79,38.25],[65.73,38.23]],[[65.73,38.23],[65.67,38.23]],[[65.67,38.23],[65.61,38.24]],[[65.61,38.24],[65.4,38.35]],[[65.4,38.35],[65.08,38.54]],[[65.08,38.54],[64.82,38.67]],[[64.82,38.67],[64.66,38.74]],[[64.66,38.74],[64.62,38.76]],[[64.62,38.76],[64.53,38.82]],[[64.53,38.82],[64.31,38.98]],[[64.31,38.98],[64.16,38.95]],[[64.16,38.95],[63.95,39.06]],[[63.95,39.06],[63.76,39.16]],[[63.76,39.16],[63.72,39.19]],[[63.72,39.19],[63.51,39.38]],[[63.51,39.38],[63.29,39.5]],[[63.29,39.5],[63.06,39.63]],[[63.06,39.63],[62.91,39.72]],[[62.91,39.72],[62.65,39.86]],[[62.65,39.86],[62.53,39.94]],[[62.53,39.94],[62.48,39.98]],[[62.48,39.98],[62.44,40.04]],[[62.44,40.04],[62.38,40.33]],[[62.38,40.33],[62.3,40.47]],[[62.3,40.47],[62.19,40.54]],[[62.19,40.54],[62.1,40.68]],[[62.1,40.68],[62.02,40.89]],[[62.02,40.89],[61.95,41.03]],[[61.95,41.03],[61.9,41.09]],[[61.9,41.09],[61.8,41.16]],[[61.8,41.16],[61.64,41.24]],[[61.64,41.24],[61.5,41.28]],[[61.5,41.28],[61.44,41.27]],[[61.44,41.27],[61.42,41.27]],[[61.42,41.27],[61.39,41.25]],[[61.39,41.25],[61.33,41.2]],[[61.33,41.2],[61.24,41.19]],[[61.24,41.19],[61.18,41.19]],[[61.18,41.19],[61.12,41.21]],[[61.12,41.21],[60.93,41.23]],[[60.93,41.23],[60.87,41.25]],[[60.87,41.25],[60.75,41.25]],[[60.75,41.25],[60.51,41.22]],[[60.51,41.22],[60.45,41.22]],[[60.45,41.22],[60.2,41.35]],[[60.2,41.35],[60.09,41.4]],[[60.09,41.4],[60.07,41.43]],[[60.07,41.43],[60.07,41.48]],[[60.07,41.48],[60.11,41.55]],[[60.11,41.55],[60.14,41.59]],[[60.14,41.59],[60.12,41.64]],[[60.12,41.64],[60.08,41.7]],[[60.08,41.7],[60.08,41.76]],[[60.08,41.76],[60.11,41.79]],[[60.11,41.79],[60.18,41.78]],[[60.18,41.78],[60.2,41.8]],[[60.2,41.8],[60.19,41.83]],[[60.19,41.83],[60.16,41.86]],[[60.16,41.86],[60.11,41.91]],[[60.11,41.91],[59.96,41.95]],[[59.96,41.95],[59.94,41.97]],[[59.94,41.97],[59.95,42.0]],[[59.95,42.0],[59.97,42.02]],[[59.97,42.02],[59.98,42.07]],[[59.98,42.07],[59.98,42.13]],[[59.98,42.13],[60.0,42.16]],[[60.0,42.16],[60.01,42.19]],[[60.01,42.19],[59.99,42.21]],[[59.99,42.21],[59.94,42.24]],[[59.94,42.24],[59.86,42.3]],[[59.86,42.3],[59.76,42.3]],[[59.76,42.3],[59.45,42.3]],[[59.45,42.3],[59.35,42.32]],[[59.35,42.32],[59.28,42.36]],[[59.28,42.36],[59.2,42.48]],[[59.2,42.48],[59.16,42.51]],[[59.16,42.51],[59.12,42.52]],[[59.12,42.52],[59.04,42.53]],[[59.04,42.53],[58.93,42.54]],[[58.93,42.54],[58.88,42.56]],[[58.88,42.56],[58.73,42.68]],[[58.73,42.68],[58.59,42.78]],[[58.59,42.78],[58.53,42.68]],[[58.53,42.68],[58.48,42.66]],[[58.48,42.66],[58.35,42.67]],[[58.35,42.67],[58.26,42.69]],[[58.26,42.69],[58.21,42.67]],[[58.21,42.67],[58.15,42.63]],[[58.15,42.63],[58.16,42.6]],[[58.16,42.6],[58.2,42.58]],[[58.2,42.58],[58.29,42.53]],[[58.29,42.53],[58.42,42.41]],[[58.42,42.41],[58.48,42.34]],[[58.48,42.34],[58.49,42.32]],[[58.49,42.32],[58.47,42.3]],[[58.47,42.3],[58.46,42.29]],[[58.46,42.29],[58.43,42.29]],[[58.43,42.29],[58.4,42.29]],[[58.4,42.29],[58.38,42.31]],[[58.38,42.31],[58.37,42.35]],[[58.37,42.35],[58.33,42.4]],[[58.33,42.4],[58.28,42.43]],[[58.28,42.43],[58.23,42.45]],[[58.23,42.45],[58.17,42.46]],[[58.17,42.46],[58.08,42.49]],[[58.08,42.49],[58.03,42.49]],[[58.03,42.49],[57.98,42.46]],[[57.98,42.46],[57.95,42.42]],[[57.95,42.42],[57.92,42.34]],[[57.92,42.34],[57.86,42.23]],[[57.86,42.23],[57.81,42.19]],[[57.81,42.19],[57.69,42.16]],[[57.69,42.16],[57.38,42.16]],[[57.38,42.16],[57.29,42.12]],[[57.29,42.12],[57.23,42.08]],[[57.23,42.08],[57.11,41.96]],[[57.11,41.96],[57.03,41.91]],[[57.03,41.91],[56.96,41.86]],[[56.96,41.86],[56.98,41.67]],[[56.98,41.67],[57.02,41.45]],[[57.02,41.45],[57.08,41.39]],[[57.08,41.39],[57.11,41.37]],[[57.11,41.37],[57.12,41.35]],[[57.12,41.35],[57.09,41.33]],[[57.09,41.33],[57.06,41.31]],[[57.06,41.31],[57.02,41.26]],[[57.02,41.26],[56.97,41.27]],[[56.97,41.27],[56.86,41.28]],[[56.86,41.28],[56.77,41.29]],[[56.77,41.29],[56.48,41.3]],[[56.48,41.3],[56.24,41.31]],[[56.24,41.31],[55.98,41.32]],[[55.98,41.32],[55.98,41.55]],[[55.98,41.55],[55.98,41.78]],[[55.98,41.78],[55.98,42.01]],[[55.98,42.01],[55.98,42.24]],[[55.98,42.24],[55.98,42.47]],[[55.98,42.47],[55.98,42.7]],[[55.98,42.7],[55.98,42.93]],[[55.98,42.93],[55.98,43.16]],[[55.98,43.16],[55.98,43.39]],[[55.98,43.39],[55.98,43.62]],[[55.98,43.62],[55.98,43.85]],[[55.98,43.85],[55.98,44.08]],[[55.98,44.08],[55.98,44.31]],[[55.98,44.31],[55.98,44.54]],[[55.98,44.54],[55.98,44.77]],[[55.98,44.77],[55.98,44.99]],[[55.98,44.99],[56.1,45.02]],[[56.1,45.02],[56.26,45.06]],[[56.26,45.06],[56.41,45.09]],[[56.41,45.09],[56.59,45.13]],[[56.59,45.13],[56.79,45.18]],[[56.79,45.18],[56.97,45.22]],[[56.97,45.22],[57.17,45.27]],[[57.17,45.27],[57.33,45.3]],[[57.33,45.3],[57.48,45.34]],[[57.48,45.34],[57.67,45.38]],[[57.67,45.38],[57.96,45.44]],[[57.96,45.44],[58.13,45.47]],[[58.13,45.47],[58.29,45.51]],[[58.29,45.51],[58.45,45.54]],[[58.45,45.54],[58.56,45.56]],[[58.56,45.56],[58.67,45.51]],[[58.67,45.51],[58.81,45.44]],[[58.81,45.44],[58.95,45.38]],[[58.95,45.38],[59.08,45.31]],[[59.08,45.31],[59.22,45.24]],[[59.22,45.24],[59.36,45.18]],[[59.36,45.18],[59.5,45.11]],[[59.5,45.11],[59.64,45.05]],[[59.64,45.05],[59.77,44.98]],[[59.77,44.98],[59.91,44.92]],[[59.91,44.92],[60.05,44.85]],[[60.05,44.85],[60.19,44.78]],[[60.19,44.78],[60.33,44.72]],[[60.33,44.72],[60.46,44.65]],[[60.46,44.65],[60.6,44.59]],[[60.6,44.59],[60.74,44.52]],[[60.74,44.52],[60.88,44.46]],[[60.88,44.46],[61.01,44.39]],[[61.01,44.39],[61.07,44.35]],[[61.07,44.35],[61.1,44.25]],[[61.1,44.25],[61.16,44.17]],[[61.16,44.17],[61.27,44.08]],[[61.27,44.08],[61.39,43.99]],[[61.39,43.99],[61.53,43.88]],[[61.53,43.88],[61.62,43.8]],[[61.62,43.8],[61.72,43.71]],[[61.72,43.71],[61.89,43.58]],[[61.89,43.58],[61.99,43.49]],[[61.99,43.49],[62.07,43.49]],[[62.07,43.49],[62.24,43.51]],[[62.24,43.51],[62.46,43.54]],[[62.46,43.54],[62.63,43.56]],[[62.63,43.56],[62.85,43.58]],[[62.85,43.58],[63.05,43.61]],[[63.05,43.61],[63.21,43.63]],[[63.21,43.63],[63.44,43.61]],[[63.44,43.61],[63.68,43.6]],[[63.68,43.6],[63.85,43.59]],[[63.85,43.59],[64.01,43.58]],[[64.01,43.58],[64.21,43.57]],[[64.21,43.57],[64.32,43.56]],[[64.32,43.56],[64.44,43.55]],[[64.44,43.55],[64.5,43.57]],[[64.5,43.57],[64.6,43.61]],[[64.6,43.61],[64.71,43.65]],[[64.71,43.65],[64.81,43.69]],[[64.81,43.69],[64.91,43.71]],[[64.91,43.71],[65.0,43.65]],[[65.0,43.65],[65.08,43.57]],[[65.08,43.57],[65.17,43.49]],[[65.17,43.49],[65.27,43.42]],[[65.27,43.42],[65.37,43.37]],[[65.37,43.37],[65.5,43.31]],[[65.5,43.31],[65.57,43.21]],[[65.57,43.21],[65.67,43.06]],[[65.67,43.06],[65.74,42.97]],[[65.74,42.97],[65.8,42.88]],[[65.8,42.88],[65.9,42.91]],[[65.9,42.91],[66.01,42.95]],[[66.01,42.95],[66.1,42.99]],[[66.1,42.99],[66.09,42.87]],[[66.09,42.87],[66.08,42.77]],[[66.08,42.77],[66.06,42.61]],[[66.06,42.61],[66.05,42.47]],[[66.05,42.47],[66.02,42.31]],[[66.02,42.31],[66.01,42.19]],[[66.01,42.19],[66.01,42.09]],[[66.01,42.09],[66.01,42.0]],[[66.01,42.0],[66.19,42.0]],[[66.19,42.0],[66.33,42.0]],[[66.33,42.0],[66.5,41.99]],[[66.5,41.99],[66.52,41.89]],[[66.52,41.89],[66.54,41.74]],[[66.54,41.74],[66.57,41.61]],[[66.57,41.61],[66.6,41.49]],[[66.6,41.49],[66.65,41.35]],[[66.65,41.35],[66.67,41.27]],[[66.67,41.27],[66.71,41.18]],[[66.71,41.18],[66.75,41.16]],[[66.75,41.16],[66.81,41.14]],[[66.81,41.14],[67.04,41.15]],[[67.04,41.15],[67.22,41.16]],[[67.22,41.16],[67.37,41.17]],[[67.37,41.17],[67.53,41.18]],[[67.53,41.18],[67.74,41.19]],[[67.74,41.19],[67.81,41.16]],[[67.81,41.16],[67.87,41.18]],[[67.87,41.18],[67.94,41.2]],[[67.94,41.2],[67.99,41.13]],[[67.99,41.13],[68.02,41.1]],[[68.02,41.1],[68.06,41.06]],[[68.06,41.06],[68.11,41.03]],[[68.11,41.03],[68.09,40.96]],[[68.09,40.96],[68.06,40.86]],[[68.06,40.86],[68.05,40.81]],[[68.05,40.81],[68.11,40.75]],[[68.11,40.75],[68.16,40.72]],[[68.16,40.72],[68.29,40.66]],[[68.29,40.66],[68.42,40.62]],[[68.42,40.62],[68.5,40.61]],[[68.5,40.61],[68.57,40.62]],[[68.57,40.62],[68.6,40.66]],[[68.6,40.66],[68.59,40.71]],[[68.59,40.71],[68.56,40.77]],[[68.56,40.77],[68.56,40.83]],[[68.56,40.83],[68.58,40.88]],[[68.58,40.88],[68.66,40.96]],[[68.66,40.96],[68.74,41.04]],[[68.74,41.04],[68.85,41.12]],[[68.85,41.12],[68.99,41.21]],[[68.99,41.21],[69.04,41.26]],[[69.04,41.26],[69.06,41.37]],[[69.06,41.37],[69.15,41.43]],[[69.15,41.43],[69.25,41.46]],[[69.25,41.46],[69.37,41.49]],[[69.37,41.49],[69.4,41.54]],[[69.4,41.54],[69.57,41.63]],[[69.57,41.63],[69.66,41.67]],[[69.66,41.67],[69.79,41.7]],[[69.79,41.7],[69.96,41.75]],[[69.96,41.75],[70.1,41.82]],[[70.1,41.82],[70.23,41.95]],[[70.23,41.95],[70.33,42.03]],[[70.33,42.03],[70.42,42.08]],[[70.42,42.08],[70.49,42.08]],[[70.49,42.08],[70.54,42.04]],[[70.54,42.04],[70.58,42.04]],[[70.58,42.04],[70.61,42.05]],[[70.61,42.05],[70.66,42.11]],[[70.66,42.11],[70.72,42.17]],[[70.72,42.17],[70.76,42.19]],[[70.76,42.19],[70.86,42.21]],[[70.86,42.21],[70.95,42.25]],[[70.65,40.94],[70.65,40.96]],[[70.65,40.96],[70.62,41.0]],[[70.62,41.0],[70.57,41.02]],[[70.57,41.02],[70.55,41.01]],[[70.55,41.01],[70.57,40.98]],[[70.57,40.98],[70.62,40.93]],[[70.62,40.93],[70.65,40.94]],[[71.21,39.89],[71.16,39.88]],[[71.16,39.88],[71.06,39.88]],[[71.06,39.88],[71.01,39.9]],[[71.01,39.9],[71.04,39.98]],[[71.04,39.98],[71.04,39.99]],[[71.04,39.99],[71.04,39.99]],[[71.04,39.99],[71.01,40.01]],[[71.01,40.01],[70.97,40.04]],[[70.97,40.04],[70.96,40.09]],[[70.96,40.09],[70.98,40.13]],[[70.98,40.13],[71.01,40.15]],[[71.01,40.15],[71.02,40.15]],[[71.02,40.15],[71.08,40.08]],[[71.08,40.08],[71.13,40.06]],[[71.13,40.06],[71.23,40.05]],[[71.23,40.05],[71.18,39.98]],[[71.18,39.98],[71.22,39.91]],[[71.22,39.91],[71.21,39.89]],[[71.78,39.95],[71.75,39.91]],[[71.75,39.91],[71.71,39.92]],[[71.71,39.92],[71.67,39.95]],[[71.67,39.95],[71.68,39.97]],[[71.68,39.97],[71.74,39.98]],[[71.74,39.98],[71.77,39.99]],[[71.77,39.99],[71.79,40.0]],[[71.79,40.0],[71.78,39.95]],[[53.11,38.8],[53.1,38.76],[53.02,39.05],[53.05,39.1],[53.09,39.09],[53.06,39.04],[53.11,38.8]],[[66.52,37.35],[66.47,37.34]],[[66.47,37.34],[66.35,37.37]],[[66.35,37.37],[66.11,37.41]],[[66.11,37.41],[65.9,37.51]],[[65.9,37.51],[65.77,37.57]],[[65.77,37.57],[65.74,37.56]],[[65.74,37.56],[65.68,37.52]],[[65.68,37.52],[65.64,37.47]],[[65.64,37.47],[65.61,37.37]],[[65.61,37.37],[65.55,37.25]],[[65.55,37.25],[65.3,37.25]],[[65.3,37.25],[65.09,37.24]],[[65.09,37.24],[64.95,37.19]],[[64.95,37.19],[64.82,37.13]],[[64.82,37.13],[64.78,37.06]],[[64.78,37.06],[64.75,36.96]],[[64.75,36.96],[64.67,36.75]],[[64.67,36.75],[64.6,36.55]],[[64.6,36.55],[64.57,36.43]],[[64.57,36.43],[64.51,36.34]],[[64.51,36.34],[64.36,36.23]],[[64.36,36.23],[64.18,36.15]],[[64.18,36.15],[64.09,36.11]],[[64.09,36.11],[64.05,36.07]],[[64.05,36.07],[64.04,36.03]],[[64.04,36.03],[64.01,36.01]],[[64.01,36.01],[63.94,36.02]],[[63.94,36.02],[63.86,36.01]],[[63.86,36.01],[63.7,35.97]],[[63.7,35.97],[63.52,35.91]],[[63.52,35.91],[63.3,35.86]],[[63.3,35.86],[63.18,35.86]],[[63.18,35.86],[63.13,35.85]],[[63.13,35.85],[63.11,35.82]],[[63.11,35.82],[63.13,35.77]],[[63.13,35.77],[63.15,35.73]],[[63.15,35.73],[63.17,35.68]],[[63.17,35.68],[63.12,35.64]],[[63.12,35.64],[63.08,35.57]],[[63.08,35.57],[63.06,35.45]],[[63.06,35.45],[62.98,35.41]],[[62.98,35.41],[62.86,35.35]],[[62.86,35.35],[62.72,35.27]],[[62.72,35.27],[62.69,35.26]],[[62.69,35.26],[62.61,35.23]],[[62.61,35.23],[62.53,35.24]],[[62.53,35.24],[62.46,35.25]],[[62.46,35.25],[62.39,35.23]],[[62.39,35.23],[62.31,35.17]],[[62.31,35.17],[62.27,35.19]],[[62.27,35.19],[62.25,35.25]],[[62.25,35.25],[62.21,35.29]],[[62.21,35.29],[62.09,35.38]],[[62.09,35.38],[61.98,35.44]],[[61.98,35.44],[61.94,35.45]],[[61.94,35.45],[61.84,35.43]],[[61.84,35.43],[61.72,35.42]],[[61.72,35.42],[61.62,35.43]],[[61.62,35.43],[61.54,35.46]],[[61.54,35.46],[61.42,35.55]],[[61.42,35.55],[61.38,35.59]],[[61.38,35.59],[61.34,35.63]],[[61.34,35.63],[61.26,35.62]],[[61.26,35.62],[61.24,35.66]],[[61.24,35.66],[61.24,35.71]],[[61.24,35.71],[61.26,35.76]],[[61.26,35.76],[61.25,35.87]],[[61.25,35.87],[61.21,35.94]],[[61.21,35.94],[61.15,35.98]],[[61.15,35.98],[61.16,36.0]],[[61.16,36.0],[61.18,36.05]],[[61.18,36.05],[61.21,36.1]],[[61.21,36.1],[61.21,36.19]],[[61.21,36.19],[61.18,36.29]],[[61.18,36.29],[61.16,36.43]],[[61.16,36.43],[61.17,36.57]],[[61.17,36.57],[61.12,36.64]],[[61.12,36.64],[60.71,36.64]],[[60.71,36.64],[60.34,36.64]],[[60.34,36.64],[60.32,36.65]],[[60.32,36.65],[60.18,36.83]],[[60.18,36.83],[60.06,36.96]],[[60.06,36.96],[59.95,37.04]],[[59.95,37.04],[59.69,37.14]],[[59.69,37.14],[59.56,37.18]],[[59.56,37.18],[59.45,37.25]],[[59.45,37.25],[59.37,37.33]],[[59.37,37.33],[59.34,37.44]],[[59.34,37.44],[59.33,37.48]],[[59.33,37.48],[59.3,37.51]],[[59.3,37.51],[59.27,37.52]],[[59.27,37.52],[59.24,37.52]],[[59.24,37.52],[58.94,37.65]],[[58.94,37.65],[58.82,37.68]],[[58.82,37.68],[58.7,37.66]],[[58.7,37.66],[58.65,37.65]],[[58.65,37.65],[58.55,37.69]],[[58.55,37.69],[58.44,37.64]],[[58.44,37.64],[58.39,37.64]],[[58.39,37.64],[58.32,37.65]],[[58.32,37.65],[58.26,37.67]],[[58.26,37.67],[58.11,37.78]],[[58.11,37.78],[57.98,37.83]],[[57.98,37.83],[57.89,37.86]],[[57.89,37.86],[57.71,37.91]],[[57.71,37.91],[57.52,37.93]],[[57.52,37.93],[57.42,37.95]],[[57.42,37.95],[57.35,37.97]],[[57.35,37.97],[57.34,37.99]],[[57.34,37.99],[57.34,38.03]],[[57.34,38.03],[57.33,38.09]],[[57.33,38.09],[57.31,38.13]],[[57.31,38.13],[57.26,38.18]],[[57.26,38.18],[57.19,38.22]],[[57.19,38.22],[57.08,38.21]],[[57.08,38.21],[56.91,38.21]],[[56.91,38.21],[56.77,38.25]],[[56.77,38.25],[56.67,38.26]],[[56.67,38.26],[56.54,38.25]],[[56.54,38.25],[56.44,38.25]],[[56.44,38.25],[56.37,38.22]],[[56.37,38.22],[56.32,38.19]],[[56.32,38.19],[56.3,38.09]],[[56.3,38.09],[56.27,38.08]],[[56.27,38.08],[56.23,38.07]],[[56.23,38.07],[56.17,38.08]],[[56.17,38.08],[56.05,38.08]],[[56.05,38.08],[55.84,38.09]],[[55.84,38.09],[55.58,38.1]],[[55.58,38.1],[55.38,38.05]],[[55.38,38.05],[55.22,37.98]],[[55.22,37.98],[55.08,37.9]],[[55.08,37.9],[54.9,37.78]],[[54.9,37.78],[54.85,37.72]],[[54.85,37.72],[54.75,37.5]],[[54.75,37.5],[54.7,37.47]],[[54.7,37.47],[54.64,37.44]],[[54.64,37.44],[54.58,37.44]],[[54.58,37.44],[54.46,37.41]],[[54.46,37.41],[54.3,37.35]],[[54.3,37.35],[54.19,37.33]],[[54.19,37.33],[53.91,37.34]],[[53.91,37.34],[53.82,37.93],[53.85,38.29],[53.84,38.51],[53.89,38.86],[53.87,38.95],[53.72,39.1],[53.7,39.21],[53.62,39.22],[53.48,39.31],[53.34,39.34],[53.2,39.32],[53.16,39.26],[53.12,39.43],[53.24,39.61],[53.39,39.54],[53.6,39.55],[53.58,39.61],[53.47,39.67],[53.45,39.75],[53.49,39.91],[53.4,39.96],[52.99,39.99],[52.95,39.9],[53.04,39.77],[52.8,40.05],[52.74,40.22],[52.73,40.4],[52.85,40.69],[52.94,41.04],[53.15,40.82],[53.33,40.78],[53.52,40.83],[53.62,40.82],[53.76,40.67],[53.87,40.65],[54.19,40.72],[54.38,40.69],[54.32,40.83],[54.37,40.87],[54.55,40.83],[54.69,40.87],[54.72,40.95],[54.7,41.07],[54.59,41.19],[54.28,41.36],[54.09,41.52],[53.85,42.09],[53.8,42.12],[53.62,42.14],[53.28,42.08],[53.16,42.09],[52.97,41.98],[52.81,41.71],[52.88,41.65],[52.83,41.34],[52.85,41.2],[52.61,41.53],[52.49,41.78]],[[52.49,41.78],[52.7,41.94]],[[52.7,41.94],[52.87,42.06]],[[52.87,42.06],[53.01,42.13]],[[53.01,42.13],[53.06,42.15]],[[53.06,42.15],[53.25,42.21]],[[53.25,42.21],[53.5,42.26]],[[53.5,42.26],[53.69,42.3]],[[53.69,42.3],[53.93,42.33]],[[53.93,42.33],[54.01,42.34]],[[54.01,42.34],[54.12,42.34]],[[54.12,42.34],[54.21,42.3]],[[54.21,42.3],[54.27,42.28]],[[54.27,42.28],[54.47,42.18]],[[54.47,42.18],[54.68,42.08]],[[54.68,42.08],[54.85,41.97]],[[54.85,41.97],[54.9,41.92]],[[54.9,41.92],[54.93,41.86]],[[54.93,41.86],[54.95,41.81]],[[54.95,41.81],[55.1,41.64]],[[55.1,41.64],[55.16,41.56]],[[55.16,41.56],[55.25,41.46]],[[55.25,41.46],[55.32,41.41]],[[55.32,41.41],[55.39,41.35]],[[55.39,41.35],[55.43,41.3]],[[55.43,41.3],[55.49,41.27]],[[55.49,41.27],[55.55,41.26]],[[55.55,41.26],[55.68,41.28]],[[55.68,41.28],[55.84,41.31]],[[55.84,41.31],[55.93,41.32]],[[55.93,41.32],[55.98,41.32]],[[44.0,40.01],[44.01,40.01]],[[44.01,40.01],[44.18,40.04]],[[44.18,40.04],[44.29,40.04]],[[44.29,40.04],[44.4,40.0]],[[44.4,40.0],[44.56,39.89]],[[44.56,39.89],[44.73,39.75]],[[44.73,39.75],[44.77,39.7]],[[44.77,39.7],[44.78,39.68]],[[44.78,39.68],[44.82,39.65]],[[44.82,39.65],[44.78,39.65]],[[44.78,39.65],[44.73,39.68]],[[44.73,39.68],[44.59,39.77]],[[44.59,39.77],[44.52,39.73]],[[44.52,39.73],[44.46,39.67]],[[44.46,39.67],[44.39,39.42]],[[44.39,39.42],[44.34,39.4]],[[44.34,39.4],[44.24,39.4]],[[44.24,39.4],[44.12,39.41]],[[44.12,39.41],[44.04,39.39]],[[44.04,39.39],[44.02,39.38]],[[44.02,39.38],[44.03,39.35]],[[44.03,39.35],[44.06,39.31]],[[44.06,39.31],[44.07,39.26]],[[44.07,39.26],[44.08,39.22]],[[44.08,39.22],[44.12,39.18]],[[44.12,39.18],[44.18,39.14]],[[44.18,39.14],[44.18,39.11]],[[44.18,39.11],[44.17,39.06]],[[44.17,39.06],[44.16,39.02]],[[44.16,39.02],[44.14,38.99]],[[44.14,38.99],[44.17,38.93]],[[44.17,38.93],[44.23,38.86]],[[44.23,38.86],[44.27,38.84]],[[44.27,38.84],[44.26,38.7]],[[44.26,38.7],[44.28,38.64]],[[44.28,38.64],[44.3,38.56]],[[44.3,38.56],[44.29,38.42]],[[44.29,38.42],[44.3,38.39]],[[44.3,38.39],[44.32,38.37]],[[44.32,38.37],[44.38,38.37]],[[44.38,38.37],[44.43,38.36]],[[44.43,38.36],[44.45,38.33]],[[44.45,38.33],[44.45,38.32]],[[44.45,38.32],[44.38,38.25]],[[44.38,38.25],[44.37,38.21]],[[44.37,38.21],[44.35,38.15]],[[44.35,38.15],[44.33,38.11]],[[44.33,38.11],[44.27,38.04]],[[44.27,38.04],[44.23,37.97]],[[44.23,37.97],[44.21,37.91]],[[44.21,37.91],[44.22,37.88]],[[44.22,37.88],[44.34,37.87]],[[44.34,37.87],[44.4,37.83]],[[44.4,37.83],[44.56,37.74]],[[44.56,37.74],[44.59,37.71]],[[44.59,37.71],[44.55,37.66]],[[44.55,37.66],[44.55,37.64]],[[44.55,37.64],[44.57,37.61]],[[44.57,37.61],[44.58,37.56]],[[44.58,37.56],[44.57,37.51]],[[44.57,37.51],[44.57,37.44]],[[44.57,37.44],[44.6,37.42]],[[44.6,37.42],[44.72,37.36]],[[44.72,37.36],[44.79,37.29]],[[44.79,37.29],[44.8,37.27]],[[44.8,37.27],[44.76,37.22]],[[44.76,37.22],[44.77,37.16]],[[44.77,37.16],[44.77,37.14]],[[44.77,37.14],[44.73,37.17]],[[44.73,37.17],[44.67,37.17]],[[44.67,37.17],[44.61,37.18]],[[44.61,37.18],[44.57,37.16]],[[44.57,37.16],[44.5,37.11]],[[44.5,37.11],[44.4,37.06]],[[44.4,37.06],[44.33,37.01]],[[44.33,37.01],[44.28,36.98]],[[44.28,36.98],[44.25,36.98]],[[44.25,36.98],[44.22,37.01]],[[44.22,37.01],[44.2,37.05]],[[44.2,37.05],[44.21,37.2]],[[44.21,37.2],[44.19,37.25]],[[44.19,37.25],[44.16,37.28]],[[44.16,37.28],[44.11,37.3]],[[44.11,37.3],[44.06,37.31]],[[44.06,37.31],[44.01,37.31]],[[44.01,37.31],[44.0,37.31]],[[70.96,40.24],[70.96,40.22]],[[70.96,40.22],[70.95,40.19]],[[70.95,40.19],[70.74,40.13]],[[70.74,40.13],[70.64,40.08]],[[70.64,40.08],[70.62,40.0]],[[70.62,40.0],[70.6,39.97]],[[70.6,39.97],[70.56,39.95]],[[70.56,39.95],[70.52,39.95]],[[70.52,39.95],[70.45,40.05]],[[70.45,40.05],[70.38,40.07]],[[70.38,40.07],[70.27,40.1]],[[70.27,40.1],[70.07,40.17]],[[70.07,40.17],[69.97,40.2]],[[69.97,40.2],[69.77,40.16]],[[69.77,40.16],[69.53,40.1]],[[69.53,40.1],[69.49,40.06]],[[69.49,40.06],[69.47,40.02]],[[69.47,40.02],[69.47,39.99]],[[69.47,39.99],[69.49,39.95]],[[69.49,39.95],[69.48,39.92]],[[69.48,39.92],[69.43,39.91]],[[69.43,39.91],[69.37,39.95]],[[69.37,39.95],[69.31,39.97]],[[69.31,39.97],[69.28,39.92]],[[69.28,39.92],[69.24,39.83]],[[69.24,39.83],[69.23,39.76]],[[69.23,39.76],[69.28,39.67]],[[69.28,39.67],[69.3,39.52]],[[69.3,39.52],[69.39,39.53]],[[69.39,39.53],[69.46,39.53]],[[69.46,39.53],[69.6,39.57]],[[69.6,39.57],[69.67,39.57]],[[69.67,39.57],[69.77,39.56]],[[69.77,39.56],[69.96,39.55]],[[69.96,39.55],[70.1,39.56]],[[70.1,39.56],[70.14,39.56]],[[70.14,39.56],[70.17,39.58]],[[70.17,39.58],[70.21,39.58]],[[70.21,39.58],[70.24,39.54]],[[70.24,39.54],[70.39,39.58]],[[70.39,39.58],[70.5,39.59]],[[70.5,39.59],[70.57,39.58]],[[70.57,39.58],[70.61,39.56]],[[70.61,39.56],[70.68,39.47]],[[70.68,39.47],[70.73,39.41]],[[70.73,39.41],[70.8,39.39]],[[70.8,39.39],[71.0,39.41]],[[71.0,39.41],[71.07,39.49]],[[71.07,39.49],[71.12,39.51]],[[71.12,39.51],[71.2,39.52]],[[71.2,39.52],[71.27,39.54]],[[71.27,39.54],[71.33,39.57]],[[71.33,39.57],[71.4,39.6]],[[71.4,39.6],[71.47,39.6]],[[71.47,39.6],[71.5,39.58]],[[71.5,39.58],[71.52,39.55]],[[71.52,39.55],[71.51,39.52]],[[71.51,39.52],[71.5,39.48]],[[71.5,39.48],[71.55,39.45]],[[71.55,39.45],[71.67,39.45]],[[71.67,39.45],[71.73,39.42]],[[71.73,39.42],[71.74,39.38]],[[71.74,39.38],[71.73,39.31]],[[71.73,39.31],[71.78,39.28]],[[71.78,39.28],[71.81,39.28]],[[71.81,39.28],[71.99,39.35]],[[71.99,39.35],[72.04,39.35]],[[72.04,39.35],[72.08,39.31]],[[72.08,39.31],[72.15,39.26]],[[72.15,39.26],[72.23,39.21]],[[72.23,39.21],[72.25,39.22]],[[72.25,39.22],[72.29,39.27]],[[72.29,39.27],[72.36,39.34]],[[72.36,39.34],[72.49,39.36]],[[72.49,39.36],[72.56,39.38]],[[72.56,39.38],[72.64,39.39]],[[72.64,39.39],[72.87,39.36]],[[72.87,39.36],[72.95,39.36]],[[72.95,39.36],[73.11,39.36]],[[73.11,39.36],[73.23,39.37]],[[73.23,39.37],[73.34,39.41]],[[73.34,39.41],[73.39,39.44]],[[73.39,39.44],[73.47,39.46]],[[73.47,39.46],[73.58,39.46]],[[73.58,39.46],[73.63,39.45]],[[73.63,39.45],[73.64,39.4]],[[73.64,39.4],[73.62,39.3]],[[73.62,39.3],[73.61,39.23]],[[73.61,39.23],[73.69,39.1]],[[73.69,39.1],[73.74,39.04]],[[73.74,39.04],[73.8,39.0]],[[73.8,39.0],[73.81,38.97]],[[73.81,38.97],[73.79,38.94]],[[73.79,38.94],[73.73,38.91]],[[73.73,38.91],[73.71,38.89]],[[73.71,38.89],[73.7,38.85]],[[73.7,38.85],[73.72,38.82]],[[73.72,38.82],[73.75,38.7]],[[73.75,38.7],[73.8,38.61]],[[73.8,38.61],[73.87,38.56]],[[73.87,38.56],[73.97,38.53]],[[73.97,38.53],[74.03,38.54]],[[74.03,38.54],[74.07,38.61]],[[74.07,38.61],[74.13,38.66]],[[74.13,38.66],[74.19,38.66]],[[74.19,38.66],[74.28,38.66]],[[74.28,38.66],[74.51,38.6]],[[74.51,38.6],[74.75,38.51]],[[74.75,38.51],[74.81,38.46]],[[74.81,38.46],[74.84,38.4]],[[74.84,38.4],[74.77,38.27]],[[74.77,38.27],[74.78,38.19]],[[74.78,38.19],[74.79,38.1]],[[74.79,38.1],[74.84,38.04]],[[74.84,38.04],[74.89,37.93]],[[74.89,37.93],[74.9,37.83]],[[74.9,37.83],[74.92,37.8]],[[74.92,37.8],[74.94,37.77]],[[74.94,37.77],[74.91,37.69]],[[74.91,37.69],[74.89,37.6]],[[74.89,37.6],[74.92,37.57]],[[74.92,37.57],[74.99,37.53]],[[74.99,37.53],[75.1,37.45]],[[75.1,37.45],[75.12,37.39]],[[75.12,37.39],[75.08,37.34]],[[75.08,37.34],[75.01,37.29]],[[75.01,37.29],[74.92,37.25]],[[74.92,37.25],[74.89,37.23]],[[74.89,37.23],[74.88,37.24]],[[74.88,37.24],[74.83,37.29]],[[74.83,37.29],[74.73,37.36]],[[74.73,37.36],[74.66,37.39]],[[74.66,37.39],[74.52,37.38]],[[74.52,37.38],[74.44,37.4]],[[74.44,37.4],[74.35,37.42]],[[74.35,37.42],[74.26,37.42]],[[74.26,37.42],[74.2,37.37]],[[74.2,37.37],[74.17,37.33]],[[74.17,37.33],[74.08,37.32]],[[74.08,37.32],[73.95,37.28]],[[73.95,37.28],[73.75,37.23]],[[73.75,37.23],[73.65,37.24]],[[73.65,37.24],[73.63,37.26]],[[73.63,37.26],[73.65,37.29]],[[73.65,37.29],[73.72,37.33]],[[73.72,37.33],[73.73,37.38]],[[73.73,37.38],[73.72,37.42]],[[73.72,37.42],[73.66,37.43]],[[73.66,37.43],[73.63,37.44]],[[73.63,37.44],[73.6,37.45]],[[73.6,37.45],[73.48,37.47]],[[73.48,37.47],[73.38,37.46]],[[73.38,37.46],[73.21,37.41]],[[73.21,37.41],[72.9,37.27]],[[72.9,37.27],[72.76,37.17]],[[72.76,37.17],[72.66,37.03]],[[72.66,37.03],[72.36,36.98]],[[72.36,36.98],[72.15,36.9]],[[72.15,36.9],[71.94,36.77]],[[71.94,36.77],[71.8,36.69]],[[71.8,36.69],[71.73,36.68]],[[71.73,36.68],[71.67,36.7]],[[71.67,36.7],[71.6,36.73]],[[71.6,36.73],[71.53,36.85]],[[71.53,36.85],[71.47,37.02]],[[71.47,37.02],[71.43,37.13]],[[71.43,37.13],[71.45,37.27]],[[71.45,37.27],[71.48,37.44]],[[71.48,37.44],[71.51,37.6]],[[71.51,37.6],[71.55,37.8]],[[71.55,37.8],[71.58,37.86]],[[71.58,37.86],[71.58,37.91]],[[71.58,37.91],[71.55,37.93]],[[71.55,37.93],[71.49,37.93]],[[71.49,37.93],[71.39,37.91]],[[71.39,37.91],[71.32,37.9]],[[71.32,37.9],[71.28,37.92]],[[71.28,37.92],[71.28,38.01]],[[71.28,38.01],[71.33,38.17]],[[71.33,38.17],[71.26,38.31]],[[71.26,38.31],[71.05,38.42]],[[71.05,38.42],[70.88,38.46]],[[70.88,38.46],[70.74,38.42]],[[70.74,38.42],[70.62,38.33]],[[70.62,38.33],[70.52,38.19]],[[70.52,38.19],[70.42,38.08]],[[70.42,38.08],[70.31,37.98]],[[70.31,37.98],[70.24,37.94]],[[70.24,37.94],[70.21,37.92]],[[70.21,37.92],[70.2,37.89]],[[70.2,37.89],[70.25,37.77]],[[70.25,37.77],[70.25,37.66]],[[70.25,37.66],[70.19,37.58]],[[70.19,37.58],[70.12,37.54]],[[70.12,37.54],[70.04,37.55]],[[70.04,37.55],[69.98,37.57]],[[69.98,37.57],[69.94,37.6]],[[69.94,37.6],[69.82,37.61]],[[69.82,37.61],[69.63,37.59]],[[69.63,37.59],[69.49,37.55]],[[69.49,37.55],[69.42,37.49]],[[69.42,37.49],[69.4,37.4]],[[69.4,37.4],[69.43,37.29]],[[69.43,37.29],[69.41,37.21]],[[69.41,37.21],[69.35,37.15]],[[69.35,37.15],[69.3,37.12]],[[69.3,37.12],[69.26,37.11]],[[69.26,37.11],[69.18,37.16]],[[69.18,37.16],[69.05,37.27]],[[69.05,37.27],[68.96,37.33]],[[68.96,37.33],[68.91,37.33]],[[68.91,37.33],[68.89,37.33]],[[68.89,37.33],[68.86,37.32]],[[68.86,37.32],[68.84,37.3]],[[68.84,37.3],[68.82,37.27]],[[68.82,37.27],[68.78,37.26]],[[68.78,37.26],[68.72,37.27]],[[68.72,37.27],[68.67,37.26]],[[68.67,37.26],[68.64,37.22]],[[68.64,37.22],[68.55,37.18]],[[68.55,37.18],[68.39,37.14]],[[68.39,37.14],[68.3,37.09]],[[68.3,37.09],[68.28,37.04]],[[68.28,37.04],[68.26,37.01]],[[68.26,37.01],[68.21,37.02]],[[68.21,37.02],[68.07,36.95]],[[68.07,36.95],[67.96,36.97]],[[67.96,36.97],[67.83,37.06]],[[67.83,37.06],[67.77,37.14]],[[67.77,37.14],[67.76,37.17]],[[70.7,39.83],[70.61,39.79]],[[70.61,39.79],[70.56,39.79]],[[70.56,39.79],[70.52,39.83]],[[70.52,39.83],[70.49,39.86]],[[70.49,39.86],[70.48,39.88]],[[70.48,39.88],[70.5,39.88]],[[70.5,39.88],[70.57,39.87]],[[70.57,39.87],[70.66,39.86]],[[70.66,39.86],[70.7,39.85]],[[70.7,39.85],[70.7,39.83]],[[90.0,50.05],[89.98,49.98]],[[89.98,49.98],[89.88,49.95]],[[89.88,49.95],[89.74,49.95]],[[89.74,49.95],[89.64,49.9]],[[89.64,49.9],[89.63,49.82]],[[89.63,49.82],[89.67,49.75]],[[89.67,49.75],[89.65,49.72]],[[89.65,49.72],[89.58,49.7]],[[89.58,49.7],[89.47,49.66]],[[89.47,49.66],[89.4,49.61]],[[89.4,49.61],[89.3,49.61]],[[89.3,49.61],[89.24,49.63]],[[89.24,49.63],[89.2,49.6]],[[89.2,49.6],[89.18,49.53]],[[89.18,49.53],[89.11,49.5]],[[89.11,49.5],[89.01,49.47]],[[89.01,49.47],[88.97,49.48]],[[88.97,49.48],[88.95,49.51]],[[88.95,49.51],[88.9,49.54]],[[88.9,49.54],[88.86,49.53]],[[88.86,49.53],[88.86,49.48]],[[88.86,49.48],[88.83,49.45]],[[88.83,49.45],[88.75,49.45]],[[88.75,49.45],[88.68,49.46]],[[88.68,49.46],[88.63,49.49]],[[88.63,49.49],[88.54,49.48]],[[88.54,49.48],[88.45,49.47]],[[88.45,49.47],[88.39,49.48]],[[88.39,49.48],[88.34,49.47]],[[88.34,49.47],[88.19,49.45]],[[88.19,49.45],[88.14,49.38]],[[88.14,49.38],[88.13,49.3]],[[88.13,49.3],[88.12,49.26]],[[88.12,49.26],[88.03,49.22]],[[88.03,49.22],[87.99,49.19]],[[87.99,49.19],[87.93,49.16]],[[87.93,49.16],[87.82,49.16]],[[87.82,49.16],[87.81,49.16]],[[87.81,49.16],[87.76,49.17]],[[87.76,49.17],[87.67,49.15]],[[87.67,49.15],[87.58,49.13]],[[87.58,49.13],[87.52,49.12]],[[87.52,49.12],[87.48,49.09]],[[87.48,49.09],[87.42,49.08]],[[87.42,49.08],[87.32,49.09]],[[87.32,49.09],[87.3,49.15]],[[87.3,49.15],[87.23,49.22]],[[87.23,49.22],[87.15,49.24]],[[87.15,49.24],[87.07,49.25]],[[87.07,49.25],[87.0,49.29]],[[87.0,49.29],[86.95,49.32]],[[86.95,49.32],[86.81,49.49]],[[86.81,49.49],[86.71,49.56]],[[86.71,49.56],[86.63,49.56]],[[86.63,49.56],[86.61,49.61]],[[86.61,49.61],[86.67,49.66]],[[86.67,49.66],[86.73,49.7]],[[86.73,49.7],[86.73,49.75]],[[86.73,49.75],[86.68,49.78]],[[86.68,49.78],[86.61,49.77]],[[86.61,49.77],[86.52,49.71]],[[86.52,49.71],[86.42,49.64]],[[86.42,49.64],[86.29,49.59]],[[86.29,49.59],[86.24,49.55]],[[86.24,49.55],[86.18,49.5]],[[86.18,49.5],[86.09,49.51]],[[86.09,49.51],[86.03,49.5]],[[86.03,49.5],[85.97,49.5]],[[85.97,49.5],[85.93,49.55]],[[85.93,49.55],[85.88,49.56]],[[85.88,49.56],[85.5,49.61]],[[85.5,49.61],[85.37,49.62]],[[85.37,49.62],[85.29,49.6]],[[85.29,49.6],[85.23,49.62]],[[85.23,49.62],[85.21,49.66]],[[85.21,49.66],[85.14,49.75]],[[85.14,49.75],[85.08,49.82]],[[85.08,49.82],[85.0,49.89]],[[85.0,49.89],[84.98,49.95]],[[84.98,49.95],[85.0,50.01]],[[85.0,50.01],[84.99,50.06]],[[84.99,50.06],[84.92,50.09]],[[84.92,50.09],[84.84,50.09]],[[84.84,50.09],[84.61,50.2]],[[84.61,50.2],[84.5,50.22]],[[84.5,50.22],[84.4,50.24]],[[84.4,50.24],[84.32,50.24]],[[84.32,50.24],[84.26,50.29]],[[84.26,50.29],[84.19,50.44]],[[84.19,50.44],[84.18,50.52]],[[84.18,50.52],[84.1,50.6]],[[84.1,50.6],[84.0,50.68]],[[84.0,50.68],[83.95,50.77]],[[83.95,50.77],[83.86,50.82]],[[83.86,50.82],[83.72,50.89]],[[83.72,50.89],[83.58,50.94]],[[83.58,50.94],[83.36,50.99]],[[83.36,50.99],[83.27,50.99]],[[83.27,50.99],[83.16,50.99]],[[83.16,50.99],[83.09,50.96]],[[83.09,50.96],[83.02,50.9]],[[83.02,50.9],[82.92,50.89]],[[82.92,50.89],[82.76,50.89]],[[82.76,50.89],[82.72,50.87]],[[82.72,50.87],[82.69,50.83]],[[82.69,50.83],[82.61,50.77]],[[82.61,50.77],[82.49,50.73]],[[82.49,50.73],[82.33,50.74]],[[82.33,50.74],[82.21,50.72]],[[82.21,50.72],[82.1,50.71]],[[82.1,50.71],[81.93,50.77]],[[81.93,50.77],[81.75,50.76]],[[81.75,50.76],[81.63,50.74]],[[81.63,50.74],[81.47,50.74]],[[81.47,50.74],[81.43,50.77]],[[81.43,50.77],[81.45,50.82]],[[81.45,50.82],[81.44,50.87]],[[81.44,50.87],[81.41,50.91]],[[81.41,50.91],[81.39,50.96]],[[81.39,50.96],[81.32,50.97]],[[81.32,50.97],[81.12,50.95]],[[81.12,50.95],[81.07,50.97]],[[81.07,50.97],[81.08,51.01]],[[81.08,51.01],[81.11,51.07]],[[81.11,51.07],[81.14,51.15]],[[81.14,51.15],[81.13,51.19]],[[81.13,51.19],[81.03,51.19]],[[81.03,51.19],[80.97,51.19]],[[80.97,51.19],[80.93,51.24]],[[80.93,51.24],[80.88,51.28]],[[80.88,51.28],[80.81,51.28]],[[80.81,51.28],[80.74,51.29]],[[80.74,51.29],[80.65,51.28]],[[80.65,51.28],[80.61,51.22]],[[80.61,51.22],[80.55,51.22]],[[80.55,51.22],[80.49,51.2]],[[80.49,51.2],[80.45,51.18]],[[80.45,51.18],[80.42,51.14]],[[80.42,51.14],[80.43,51.09]],[[80.43,51.09],[80.45,51.0]],[[80.45,51.0],[80.42,50.95]],[[80.42,50.95],[80.35,50.92]],[[80.35,50.92],[80.27,50.92]],[[80.27,50.92],[80.22,50.91]],[[80.22,50.91],[80.13,50.86]],[[80.13,50.86],[80.09,50.84]],[[80.09,50.84],[80.07,50.81]],[[80.07,50.81],[80.07,50.76]],[[80.07,50.76],[79.99,50.77]],[[79.99,50.77],[79.86,50.96]],[[79.86,50.96],[79.72,51.16]],[[79.72,51.16],[79.55,51.38]],[[79.55,51.38],[79.47,51.49]],[[79.47,51.49],[79.15,51.87]],[[79.15,51.87],[78.99,52.05]],[[78.99,52.05],[78.72,52.36]],[[78.72,52.36],[78.48,52.64]],[[78.48,52.64],[78.2,52.93]],[[78.2,52.93],[78.03,53.09]],[[78.03,53.09],[77.86,53.27]],[[77.86,53.27],[77.8,53.32]],[[77.8,53.32],[77.7,53.38]],[[77.7,53.38],[77.47,53.5]],[[77.47,53.5],[77.13,53.67]],[[77.13,53.67],[76.82,53.82]],[[76.82,53.82],[76.58,53.94]],[[76.58,53.94],[76.51,53.99]],[[76.51,53.99],[76.48,54.02]],[[76.48,54.02],[76.46,54.06]],[[76.46,54.06],[76.42,54.11]],[[76.42,54.11],[76.42,54.15]],[[76.42,54.15],[76.65,54.15]],[[76.65,54.15],[76.7,54.18]],[[76.7,54.18],[76.79,54.32]],[[76.79,54.32],[76.84,54.44]],[[76.84,54.44],[76.76,54.44]],[[76.76,54.44],[76.62,54.39]],[[76.62,54.39],[76.54,54.35]],[[76.54,54.35],[76.5,54.34]],[[76.5,54.34],[76.27,54.31]],[[76.27,54.31],[76.14,54.26]],[[76.14,54.26],[75.88,54.17]],[[75.88,54.17],[75.69,54.11]],[[75.69,54.11],[75.66,54.11]],[[75.66,54.11],[75.44,54.09]],[[75.44,54.09],[75.4,54.07]],[[75.4,54.07],[75.39,54.02]],[[75.39,54.02],[75.38,53.97]],[[75.38,53.97],[75.22,53.89]],[[75.22,53.89],[75.05,53.83]],[[75.05,53.83],[74.99,53.82]],[[74.99,53.82],[74.89,53.83]],[[74.89,53.83],[74.83,53.83]],[[74.83,53.83],[74.68,53.75]],[[74.68,53.75],[74.45,53.65]],[[74.45,53.65],[74.43,53.6]],[[74.43,53.6],[74.43,53.55]],[[74.43,53.55],[74.4,53.5]],[[74.4,53.5],[74.35,53.49]],[[74.35,53.49],[74.28,53.53]],[[74.28,53.53],[74.21,53.58]],[[74.21,53.58],[74.07,53.61]],[[74.07,53.61],[73.86,53.62]],[[73.86,53.62],[73.73,53.6]],[[73.73,53.6],[73.64,53.58]],[[73.64,53.58],[73.47,53.47]],[[73.47,53.47],[73.41,53.45]],[[73.41,53.45],[73.37,53.45]],[[73.37,53.45],[73.36,53.51]],[[73.36,53.51],[73.33,53.54]],[[73.33,53.54],[73.29,53.6]],[[73.29,53.6],[73.31,53.71]],[[73.31,53.71],[73.4,53.81]],[[73.4,53.81],[73.55,53.87]],[[73.55,53.87],[73.68,53.93]],[[73.68,53.93],[73.72,54.0]],[[73.72,54.0],[73.71,54.04]],[[73.71,54.04],[73.67,54.06]],[[73.67,54.06],[73.62,54.07]],[[73.62,54.07],[73.59,54.04]],[[73.59,54.04],[73.51,54.0]],[[73.51,54.0],[73.38,53.96]],[[73.38,53.96],[73.28,53.96]],[[73.28,53.96],[73.23,53.96]],[[73.23,53.96],[73.12,53.98]],[[73.12,53.98],[72.91,54.11]],[[72.91,54.11],[72.74,54.12]],[[72.74,54.12],[72.62,54.13]],[[72.62,54.13],[72.58,54.12]],[[72.58,54.12],[72.56,54.09]],[[72.56,54.09],[72.58,54.06]],[[72.58,54.06],[72.6,54.02]],[[72.6,54.02],[72.59,54.0]],[[72.59,54.0],[72.53,53.98]],[[72.53,53.98],[72.45,53.94]],[[72.45,53.94],[72.4,53.96]],[[72.4,53.96],[72.38,54.05]],[[72.38,54.05],[72.39,54.12]],[[72.39,54.12],[72.33,54.18]],[[72.33,54.18],[72.27,54.27]],[[72.27,54.27],[72.19,54.33]],[[72.19,54.33],[72.11,54.31]],[[72.11,54.31],[72.07,54.23]],[[72.07,54.23],[72.0,54.21]],[[72.0,54.21],[71.89,54.22]],[[71.89,54.22],[71.68,54.18]],[[71.68,54.18],[71.34,54.16]],[[71.34,54.16],[71.09,54.21]],[[71.09,54.21],[71.05,54.26]],[[71.05,54.26],[71.15,54.36]],[[71.15,54.36],[71.16,54.46]],[[71.16,54.46],[71.16,54.54]],[[71.16,54.54],[71.19,54.6]],[[71.19,54.6],[71.13,54.72]],[[71.13,54.72],[70.99,54.95]],[[70.99,54.95],[70.91,55.13]],[[70.91,55.13],[70.79,55.26]],[[70.79,55.26],[70.74,55.31]],[[70.74,55.31],[70.49,55.28]],[[70.49,55.28],[70.42,55.25]],[[70.42,55.25],[70.37,55.21]],[[70.37,55.21],[70.29,55.18]],[[70.29,55.18],[70.18,55.16]],[[70.18,55.16],[70.09,55.18]],[[70.09,55.18],[69.98,55.2]],[[69.98,55.2],[69.87,55.25]],[[69.87,55.25],[69.74,55.31]],[[69.74,55.31],[69.49,55.36]],[[69.49,55.36],[69.25,55.37]],[[69.25,55.37],[68.98,55.39]],[[68.98,55.39],[68.84,55.36]],[[68.84,55.36],[68.71,55.31]],[[68.71,55.31],[68.52,55.2]],[[68.52,55.2],[68.44,55.19]],[[68.44,55.19],[68.3,55.19]],[[68.3,55.19],[68.21,55.16]],[[68.21,55.16],[68.23,55.12]],[[68.23,55.12],[68.24,55.05]],[[68.24,55.05],[68.21,55.0]],[[68.21,55.0],[68.16,54.98]],[[68.16,54.98],[68.07,54.96]],[[68.07,54.96],[67.94,54.95]],[[67.94,54.95],[67.83,54.94]],[[67.83,54.94],[67.69,54.87]],[[67.69,54.87],[67.48,54.85]],[[67.48,54.85],[67.26,54.83]],[[67.26,54.83],[67.1,54.79]],[[67.1,54.79],[66.75,54.74]],[[66.75,54.74],[66.56,54.72]],[[66.56,54.72],[66.22,54.67]],[[66.22,54.67],[65.95,54.66]],[[65.95,54.66],[65.91,54.69]],[[65.91,54.69],[65.71,54.62]],[[65.71,54.62],[65.48,54.62]],[[65.48,54.62],[65.43,54.59]],[[65.43,54.59],[65.38,54.56]],[[65.38,54.56],[65.32,54.55]],[[65.32,54.55],[65.24,54.52]],[[65.24,54.52],[65.19,54.44]],[[65.19,54.44],[65.16,54.36]],[[65.16,54.36],[65.09,54.34]],[[65.09,54.34],[65.0,54.37]],[[65.0,54.37],[64.93,54.4]],[[64.93,54.4],[64.81,54.37]],[[64.81,54.37],[64.65,54.35]],[[64.65,54.35],[64.53,54.36]],[[64.53,54.36],[64.46,54.38]],[[64.46,54.38],[64.2,54.35]],[[64.2,54.35],[64.06,54.3]],[[64.06,54.3],[64.04,54.28]],[[64.04,54.28],[64.0,54.27]],[[64.0,54.27],[63.85,54.24]],[[63.85,54.24],[63.72,54.25]],[[63.72,54.25],[63.7,54.24]],[[63.7,54.24],[63.58,54.22]],[[63.58,54.22],[63.41,54.18]],[[63.41,54.18],[63.29,54.17]],[[63.29,54.17],[63.19,54.17]],[[63.19,54.17],[63.13,54.14]],[[63.13,54.14],[63.07,54.11]],[[63.07,54.11],[62.63,54.07]],[[62.63,54.07],[62.59,54.04]],[[62.59,54.04],[62.5,54.01]],[[62.5,54.01],[62.04,54.0]],[[62.04,54.0],[62.0,53.98]],[[62.0,53.98],[61.99,53.95]],[[61.99,53.95],[61.93,53.95]],[[61.93,53.95],[61.6,53.99]],[[61.6,53.99],[61.33,54.05]],[[61.33,54.05],[61.23,54.02]],[[61.23,54.02],[61.14,53.96]],[[61.14,53.96],[61.11,53.88]],[[61.11,53.88],[61.11,53.81]],[[61.11,53.81],[61.11,53.75]],[[61.11,53.75],[61.07,53.71]],[[61.07,53.71],[60.99,53.66]],[[60.99,53.66],[60.98,53.62]],[[60.98,53.62],[61.1,53.58]],[[61.1,53.58],[61.25,53.55]],[[61.25,53.55],[61.34,53.57]],[[61.34,53.57],[61.41,53.59]],[[61.41,53.59],[61.47,53.58]],[[61.47,53.58],[61.52,53.55]],[[61.52,53.55],[61.53,53.52]],[[61.53,53.52],[61.53,53.5]],[[61.53,53.5],[61.5,53.48]],[[61.5,53.48],[61.4,53.46]],[[61.4,53.46],[61.31,53.47]],[[61.31,53.47],[61.23,53.45]],[[61.23,53.45],[61.19,53.41]],[[61.19,53.41],[61.16,53.34]],[[61.16,53.34],[61.2,53.29]],[[61.2,53.29],[61.31,53.28]],[[61.31,53.28],[61.44,53.24]],[[61.44,53.24],[61.58,53.22]],[[61.58,53.22],[61.66,53.23]],[[61.66,53.23],[61.77,53.17]],[[61.77,53.17],[62.01,53.11]],[[62.01,53.11],[62.08,53.06]],[[62.08,53.06],[62.08,53.01]],[[62.08,53.01],[62.04,52.97]],[[62.04,52.97],[61.97,52.94]],[[61.97,52.94],[61.89,52.96]],[[61.89,52.96],[61.72,52.97]],[[61.72,52.97],[61.53,52.98]],[[61.53,52.98],[61.4,53.0]],[[61.4,53.0],[61.21,52.99]],[[61.21,52.99],[61.05,52.97]],[[61.05,52.97],[61.01,52.93]],[[61.01,52.93],[60.94,52.86]],[[60.94,52.86],[60.89,52.82]],[[60.89,52.82],[60.8,52.74]],[[60.8,52.74],[60.77,52.68]],[[60.77,52.68],[60.82,52.57]],[[60.82,52.57],[60.98,52.39]],[[60.98,52.39],[60.99,52.34]],[[60.99,52.34],[60.94,52.28]],[[60.94,52.28],[60.83,52.23]],[[60.83,52.23],[60.67,52.15]],[[60.67,52.15],[60.5,52.15]],[[60.5,52.15],[60.43,52.13]],[[60.43,52.13],[60.23,52.02]],[[60.23,52.02],[60.07,51.98]],[[60.07,51.98],[60.03,51.93]],[[60.03,51.93],[60.07,51.89]],[[60.07,51.89],[60.28,51.83]],[[60.28,51.83],[60.39,51.77]],[[60.39,51.77],[60.42,51.7]],[[60.42,51.7],[60.46,51.65]],[[60.46,51.65],[60.63,51.62]],[[60.63,51.62],[60.97,51.54]],[[60.97,51.54],[60.99,51.53]],[[60.99,51.53],[61.01,51.49]],[[61.01,51.49],[61.36,51.44]],[[61.36,51.44],[61.41,51.41]],[[61.41,51.41],[61.55,51.32]],[[61.55,51.32],[61.59,51.23]],[[61.59,51.23],[61.51,51.14]],[[61.51,51.14],[61.47,50.99]],[[61.47,50.99],[61.39,50.86]],[[61.39,50.86],[61.23,50.77]],[[61.23,50.77],[60.94,50.7]],[[60.94,50.7],[60.64,50.66]],[[60.64,50.66],[60.51,50.67]],[[60.51,50.67],[60.42,50.68]],[[60.42,50.68],[60.29,50.7]],[[60.29,50.7],[60.19,50.77]],[[60.19,50.77],[60.11,50.83]],[[60.11,50.83],[60.06,50.85]],[[60.06,50.85],[60.01,50.84]],[[60.01,50.84],[59.96,50.8]],[[59.96,50.8],[59.89,50.69]],[[59.89,50.69],[59.81,50.58]],[[59.81,50.58],[59.75,50.54]],[[59.75,50.54],[59.52,50.49]],[[59.52,50.49],[59.5,50.51]],[[59.5,50.51],[59.52,50.58]],[[59.52,50.58],[59.5,50.6]],[[59.5,50.6],[59.45,50.62]],[[59.45,50.62],[59.17,50.65]],[[59.17,50.65],[59.06,50.67]],[[59.06,50.67],[58.98,50.68]],[[58.98,50.68],[58.88,50.69]],[[58.88,50.69],[58.81,50.74]],[[58.81,50.74],[58.66,50.87]],[[58.66,50.87],[58.55,50.97]],[[58.55,50.97],[58.36,51.06]],[[58.36,51.06],[58.19,51.08]],[[58.19,51.08],[58.17,51.07]],[[58.17,51.07],[58.05,51.07]],[[58.05,51.07],[57.84,51.09]],[[57.84,51.09],[57.83,51.09]],[[57.83,51.09],[57.76,51.05]],[[57.76,51.05],[57.72,50.98]],[[57.72,50.98],[57.65,50.93]],[[57.65,50.93],[57.56,50.9]],[[57.56,50.9],[57.44,50.89]],[[57.44,50.89],[57.31,50.95]],[[57.31,50.95],[57.18,51.04]],[[57.18,51.04],[57.01,51.07]],[[57.01,51.07],[56.85,51.05]],[[56.85,51.05],[56.79,51.03]],[[56.79,51.03],[56.62,50.98]],[[56.62,50.98],[56.57,51.0]],[[56.57,51.0],[56.49,51.02]],[[56.49,51.02],[56.33,50.94]],[[56.33,50.94],[56.14,50.84]],[[56.14,50.84],[56.1,50.78]],[[56.1,50.78],[56.05,50.71]],[[56.05,50.71],[55.93,50.65]],[[55.93,50.65],[55.8,50.6]],[[55.8,50.6],[55.69,50.58]],[[55.69,50.58],[55.54,50.6]],[[55.54,50.6],[55.36,50.67]],[[55.36,50.67],[55.2,50.74]],[[55.2,50.74],[55.01,50.87]],[[55.01,50.87],[54.87,50.94]],[[54.87,50.94],[54.73,51.0]],[[54.73,51.0],[54.64,51.01]],[[54.64,51.01],[54.57,50.99]],[[54.57,50.99],[54.55,50.95]],[[54.55,50.95],[54.57,50.91]],[[54.57,50.91],[54.61,50.88]],[[54.61,50.88],[54.64,50.78]],[[54.64,50.78],[54.65,50.66]],[[54.65,50.66],[54.64,50.59]],[[54.64,50.59],[54.6,50.55]],[[54.6,50.55],[54.56,50.54]],[[54.56,50.54],[54.52,50.54]],[[54.52,50.54],[54.47,50.58]],[[54.47,50.58],[54.44,50.67]],[[54.44,50.67],[54.42,50.78]],[[54.42,50.78],[54.3,50.91]],[[54.3,50.91],[54.19,51.0]],[[54.19,51.0],[54.14,51.04]],[[54.14,51.04],[54.04,51.12]],[[54.04,51.12],[53.96,51.16]],[[53.96,51.16],[53.78,51.21]],[[53.78,51.21],[53.69,51.25]],[[53.69,51.25],[53.53,51.4]],[[53.53,51.4],[53.45,51.44]],[[53.45,51.44],[53.34,51.48]],[[53.34,51.48],[53.25,51.49]],[[53.25,51.49],[53.23,51.48]],[[53.23,51.48],[53.04,51.46]],[[53.04,51.46],[52.9,51.47]],[[52.9,51.47],[52.82,51.49]],[[52.82,51.49],[52.74,51.5]],[[52.74,51.5],[52.73,51.5]],[[52.73,51.5],[52.64,51.48]],[[52.64,51.48],[52.62,51.48]],[[52.62,51.48],[52.57,51.48]],[[52.57,51.48],[52.5,51.51]],[[52.5,51.51],[52.42,51.59]],[[52.42,51.59],[52.33,51.68]],[[52.33,51.68],[52.22,51.71]],[[52.22,51.71],[52.01,51.67]],[[52.01,51.67],[51.78,51.55]],[[51.78,51.55],[51.61,51.48]],[[51.61,51.48],[51.47,51.48]],[[51.47,51.48],[51.4,51.47]],[[51.4,51.47],[51.34,51.48]],[[51.34,51.48],[51.3,51.5]],[[51.3,51.5],[51.29,51.54]],[[51.29,51.54],[51.27,51.59]],[[51.27,51.59],[51.16,51.65]],[[51.16,51.65],[51.02,51.68]],[[51.02,51.68],[50.88,51.72]],[[50.88,51.72],[50.79,51.73]],[[50.79,51.73],[50.76,51.68]],[[50.76,51.68],[50.64,51.59]],[[50.64,51.59],[50.52,51.51]],[[50.52,51.51],[50.35,51.37]],[[50.35,51.37],[50.31,51.32]],[[50.31,51.32],[50.25,51.29]],[[50.25,51.29],[50.1,51.25]],[[50.1,51.25],[49.93,51.2]],[[49.93,51.2],[49.82,51.13]],[[49.82,51.13],[49.67,51.1]],[[49.67,51.1],[49.5,51.08]],[[49.5,51.08],[49.42,51.03]],[[49.42,51.03],[49.38,50.93]],[[49.38,50.93],[49.32,50.85]],[[49.32,50.85],[49.06,50.73]],[[49.06,50.73],[48.91,50.64]],[[48.91,50.64],[48.81,50.6]],[[48.81,50.6],[48.73,50.61]],[[48.73,50.61],[48.66,50.62]],[[48.66,50.62],[48.63,50.61]],[[48.63,50.61],[48.67,50.55]],[[48.67,50.55],[48.7,50.35]],[[48.7,50.35],[48.75,50.23]],[[48.75,50.23],[48.78,50.16]],[[48.78,50.16],[48.82,50.1]],[[48.82,50.1],[48.84,50.01]],[[48.84,50.01],[48.81,49.96]],[[48.81,49.96],[48.76,49.93]],[[48.76,49.93],[48.6,49.87]],[[48.6,49.87],[48.43,49.83]],[[48.43,49.83],[48.33,49.86]],[[48.33,49.86],[48.22,49.93]],[[48.22,49.93],[48.18,49.97]],[[48.18,49.97],[48.06,50.09]],[[48.06,50.09],[47.85,50.28]],[[47.85,50.28],[47.71,50.38]],[[47.71,50.38],[47.6,50.41]],[[47.6,50.41],[47.5,50.4]],[[47.5,50.4],[47.43,50.36]],[[47.43,50.36],[47.38,50.32]],[[47.38,50.32],[47.33,50.27]],[[47.33,50.27],[47.29,50.22]],[[47.29,50.22],[47.3,50.14]],[[47.3,50.14],[47.3,50.06]],[[47.3,50.06],[47.25,50.0]],[[47.25,50.0],[47.13,49.94]],[[47.13,49.94],[46.99,49.85]],[[46.99,49.85],[46.89,49.7]],[[46.89,49.7],[46.82,49.5]],[[46.82,49.5],[46.8,49.37]],[[46.8,49.37],[46.85,49.3]],[[46.85,49.3],[46.95,49.25]],[[46.95,49.25],[47.02,49.2]],[[47.02,49.2],[47.03,49.15]],[[47.03,49.15],[47.01,49.1]],[[47.01,49.1],[46.96,49.04]],[[46.96,49.04],[46.85,48.97]],[[46.85,48.97],[46.7,48.81]],[[46.7,48.81],[46.61,48.57]],[[46.61,48.57],[46.66,48.41]],[[46.66,48.41],[46.85,48.32]],[[46.85,48.32],[47.0,48.28]],[[47.0,48.28],[47.06,48.23]],[[47.06,48.23],[47.12,48.13]],[[47.12,48.13],[47.11,48.02]],[[47.11,48.02],[47.09,47.95]],[[47.09,47.95],[47.13,47.88]],[[47.13,47.88],[47.2,47.79]],[[47.2,47.79],[47.29,47.74]],[[47.29,47.74],[47.39,47.77]],[[47.39,47.77],[47.48,47.8]],[[47.48,47.8],[47.6,47.79]],[[47.6,47.79],[47.93,47.76]],[[47.93,47.76],[48.11,47.75]],[[48.11,47.75],[48.17,47.71]],[[48.17,47.71],[48.28,47.59]],[[48.28,47.59],[48.41,47.46]],[[48.41,47.46],[48.55,47.32]],[[48.55,47.32],[48.6,47.26]],[[48.6,47.26],[48.71,47.1]],[[48.71,47.1],[48.83,46.95]],[[48.83,46.95],[48.96,46.77]],[[48.96,46.77],[48.95,46.73]],[[48.95,46.73],[48.88,46.71]],[[48.88,46.71],[48.78,46.71]],[[48.78,46.71],[48.69,46.74]],[[48.69,46.74],[48.65,46.76]],[[48.65,46.76],[48.61,46.77]],[[48.61,46.77],[48.56,46.76]],[[48.56,46.76],[48.52,46.73]],[[48.52,46.73],[48.5,46.7]],[[48.5,46.7],[48.51,46.65]],[[48.51,46.65],[48.54,46.61]],[[48.54,46.61],[48.59,46.58]],[[48.59,46.58],[48.61,46.57]],[[48.61,46.57],[48.77,46.51]],[[48.77,46.51],[48.96,46.44]],[[48.96,46.44],[49.18,46.35]],[[49.18,46.35],[49.23,46.34]],[[49.23,46.34],[49.25,46.29],[49.13,46.28],[49.08,46.19],[48.68,46.09],[48.7,45.98],[48.75,45.92],[48.73,45.9],[48.49,45.93],[48.16,45.74],[47.83,45.66],[47.7,45.69],[47.65,45.66],[47.63,45.58],[47.46,45.68],[47.52,45.6],[47.53,45.53],[47.49,45.46],[47.41,45.42],[47.35,45.22],[47.11,44.91],[47.08,44.82],[47.0,44.88],[46.96,44.78],[46.76,44.66],[46.71,44.5],[46.75,44.42],[47.02,44.34],[47.31,44.1],[47.43,43.78],[47.46,43.56],[47.56,43.83],[47.65,43.88],[47.51,43.51],[47.49,43.38],[47.51,43.22],[47.46,43.04],[47.63,42.9],[47.71,42.81],[47.73,42.68],[48.08,42.35],[48.38,41.95],[48.57,41.84]],[[48.57,41.84],[48.52,41.78]],[[48.52,41.78],[48.43,41.66]],[[48.43,41.66],[48.39,41.6]],[[48.39,41.6],[48.3,41.55]],[[48.3,41.55],[48.14,41.48]],[[48.14,41.48],[48.06,41.46]],[[48.06,41.46],[47.96,41.33]],[[47.96,41.33],[47.86,41.21]],[[47.86,41.21],[47.79,41.2]],[[47.79,41.2],[47.59,41.22]],[[47.59,41.22],[47.52,41.23]],[[47.52,41.23],[47.32,41.28]],[[47.32,41.28],[47.26,41.32]],[[47.26,41.32],[47.21,41.46]],[[47.21,41.46],[47.14,41.52]],[[47.14,41.52],[47.06,41.55]],[[47.06,41.55],[47.01,41.59]],[[47.01,41.59],[46.99,41.62]],[[46.99,41.62],[46.93,41.67]],[[46.93,41.67],[46.83,41.74]],[[46.83,41.74],[46.75,41.81]],[[46.75,41.81],[46.69,41.83]],[[46.69,41.83],[46.62,41.81]],[[46.62,41.81],[46.57,41.8]],[[46.57,41.8],[46.55,41.81]],[[46.55,41.81],[46.54,41.87]],[[46.54,41.87],[46.43,41.89]],[[46.43,41.89],[46.41,41.9]],[[46.41,41.9],[46.27,41.96]],[[46.27,41.96],[46.21,41.99]],[[46.21,41.99],[46.16,41.99]],[[46.16,41.99],[46.05,42.01]],[[46.05,42.01],[45.95,42.04]],[[45.95,42.04],[45.91,42.07]],[[45.91,42.07],[45.85,42.11]],[[45.85,42.11],[45.73,42.16]],[[45.73,42.16],[45.64,42.21]],[[45.64,42.21],[45.63,42.23]],[[45.63,42.23],[45.69,42.36]],[[45.69,42.36],[45.73,42.48]],[[45.73,42.48],[45.71,42.5]],[[45.71,42.5],[45.66,42.52]],[[45.66,42.52],[45.56,42.54]],[[45.56,42.54],[45.34,42.53]],[[45.34,42.53],[45.21,42.65]],[[45.21,42.65],[45.16,42.67]],[[45.16,42.67],[45.07,42.69]],[[45.07,42.69],[44.94,42.73]],[[44.94,42.73],[44.87,42.76]],[[44.87,42.76],[44.85,42.75]],[[44.85,42.75],[44.77,42.62]],[[44.77,42.62],[44.69,42.71]],[[44.69,42.71],[44.64,42.73]],[[44.64,42.73],[44.58,42.75]],[[44.58,42.75],[44.51,42.75]],[[44.51,42.75],[44.33,42.7]],[[44.33,42.7],[44.2,42.65]],[[44.2,42.65],[44.1,42.62]],[[44.1,42.62],[44.0,42.6]],[[44.0,42.6],[44.0,42.59]],[[47.98,45.49],[47.97,45.47],[47.92,45.56],[47.95,45.65],[47.98,45.49]],[[76.77,35.66],[76.81,35.57]],[[76.81,35.57],[76.88,35.44]],[[76.88,35.44],[76.93,35.35]],[[76.93,35.35],[76.98,35.25]],[[76.98,35.25],[77.0,35.2]],[[77.0,35.2],[77.05,35.11]],[[77.05,35.11],[77.03,35.06]],[[77.03,35.06],[77.0,34.99]],[[77.0,34.99],[76.89,34.94]],[[76.89,34.94],[76.78,34.9]],[[76.78,34.9],[76.76,34.88]],[[76.76,34.88],[76.75,34.85]],[[76.75,34.85],[76.7,34.79]],[[76.7,34.79],[76.59,34.74]],[[76.59,34.74],[76.51,34.74]],[[76.51,34.74],[76.46,34.76]],[[76.46,34.76],[76.17,34.67]],[[76.17,34.67],[76.04,34.67]],[[76.04,34.67],[75.94,34.61]],[[75.94,34.61],[75.86,34.56]],[[75.86,34.56],[75.71,34.5]],[[75.71,34.5],[75.61,34.5]],[[75.61,34.5],[75.45,34.54]],[[75.45,34.54],[75.26,34.6]],[[75.26,34.6],[75.19,34.64]],[[75.19,34.64],[75.12,34.64]],[[75.12,34.64],[74.95,34.65]],[[74.95,34.65],[74.79,34.68]],[[74.79,34.68],[74.59,34.72]],[[74.59,34.72],[74.5,34.73]],[[74.5,34.73],[74.3,34.77]],[[74.3,34.77],[74.17,34.72]],[[74.17,34.72],[74.06,34.68]],[[74.06,34.68],[73.96,34.65]],[[73.96,34.65],[73.88,34.53]],[[73.88,34.53],[73.85,34.49]],[[73.85,34.49],[73.81,34.42]],[[73.81,34.42],[73.79,34.38]],[[73.79,34.38],[73.81,34.33]],[[73.81,34.33],[73.92,34.29]],[[73.92,34.29],[73.97,34.24]],[[73.97,34.24],[73.98,34.19]],[[73.98,34.19],[73.94,34.14]],[[73.94,34.14],[73.9,34.11]],[[73.9,34.11],[73.9,34.08]],[[73.9,34.08],[73.92,34.04]],[[73.92,34.04],[73.95,34.02]],[[73.95,34.02],[74.11,34.0]],[[74.11,34.0],[74.21,34.0]],[[74.21,34.0],[74.25,33.99]],[[74.25,33.99],[74.25,33.95]],[[74.25,33.95],[74.22,33.89]],[[74.22,33.89],[74.08,33.84]],[[74.08,33.84],[74.0,33.79]],[[74.0,33.79],[73.98,33.72]],[[73.98,33.72],[73.98,33.67]],[[73.98,33.67],[74.0,33.63]],[[74.0,33.63],[74.07,33.59]],[[74.07,33.59],[74.13,33.55]],[[74.13,33.55],[74.15,33.51]],[[74.15,33.51],[74.14,33.46]],[[74.14,33.46],[74.12,33.38]],[[74.12,33.38],[74.05,33.3]],[[74.05,33.3],[73.99,33.24]],[[73.99,33.24],[73.99,33.22]],[[73.99,33.22],[74.0,33.19]],[[74.0,33.19],[74.05,33.14]],[[74.05,33.14],[74.13,33.08]],[[74.13,33.08],[74.22,33.02]],[[74.22,33.02],[74.28,33.01]],[[74.28,33.01],[74.29,33.0]],[[69.5,33.0],[69.5,33.02]],[[69.5,33.02],[69.57,33.06]],[[69.57,33.06],[69.7,33.09]],[[69.7,33.09],[69.92,33.11]],[[69.92,33.11],[70.09,33.2]],[[70.09,33.2],[70.26,33.29]],[[70.26,33.29],[70.28,33.37]],[[70.28,33.37],[70.22,33.45]],[[70.22,33.45],[70.13,33.62]],[[70.13,33.62],[70.06,33.72]],[[70.06,33.72],[69.87,33.9]],[[69.87,33.9],[69.89,34.01]],[[69.89,34.01],[69.99,34.05]],[[69.99,34.05],[70.25,33.98]],[[70.25,33.98],[70.33,33.96]],[[70.33,33.96],[70.42,33.95]],[[70.42,33.95],[70.65,33.95]],[[70.65,33.95],[70.85,33.98]],[[70.85,33.98],[71.05,34.05]],[[71.05,34.05],[71.09,34.12]],[[71.09,34.12],[71.09,34.2]],[[71.09,34.2],[71.09,34.27]],[[71.09,34.27],[71.1,34.37]],[[71.1,34.37],[71.02,34.43]],[[71.02,34.43],[70.98,34.49]],[[70.98,34.49],[70.97,34.53]],[[70.97,34.53],[71.02,34.55]],[[71.02,34.55],[71.07,34.6]],[[71.07,34.6],[71.11,34.68]],[[71.11,34.68],[71.23,34.78]],[[71.23,34.78],[71.29,34.87]],[[71.29,34.87],[71.36,34.91]],[[71.36,34.91],[71.46,34.97]],[[71.46,34.97],[71.52,35.05]],[[71.52,35.05],[71.55,35.1]],[[71.55,35.1],[71.6,35.15]],[[71.6,35.15],[71.62,35.18]],[[71.62,35.18],[71.61,35.21]],[[71.61,35.21],[71.58,35.25]],[[71.58,35.25],[71.55,35.29]],[[71.55,35.29],[71.55,35.33]],[[71.55,35.33],[71.57,35.37]],[[71.57,35.37],[71.6,35.41]],[[71.6,35.41],[71.59,35.46]],[[71.59,35.46],[71.57,35.55]],[[71.57,35.55],[71.52,35.6]],[[71.52,35.6],[71.48,35.71]],[[71.48,35.71],[71.43,35.83]],[[71.43,35.83],[71.4,35.88]],[[71.4,35.88],[71.34,35.94]],[[71.34,35.94],[71.22,36.0]],[[71.22,36.0],[71.19,36.04]],[[71.19,36.04],[71.23,36.12]],[[71.23,36.12],[71.31,36.17]],[[71.31,36.17],[71.46,36.29]],[[71.46,36.29],[71.55,36.38]],[[71.55,36.38],[71.62,36.44]],[[71.62,36.44],[71.72,36.43]],[[71.72,36.43],[71.77,36.43]],[[71.77,36.43],[71.82,36.49]],[[71.82,36.49],[71.92,36.53]],[[71.92,36.53],[72.1,36.63]],[[72.1,36.63],[72.16,36.7]],[[72.16,36.7],[72.25,36.73]],[[72.25,36.73],[72.33,36.74]],[[72.33,36.74],[72.43,36.77]],[[72.43,36.77],[72.53,36.8]],[[72.53,36.8],[72.62,36.83]],[[72.62,36.83],[72.77,36.84]],[[72.77,36.84],[72.99,36.85]],[[72.99,36.85],[73.12,36.87]],[[73.12,36.87],[73.41,36.88]],[[73.41,36.88],[73.73,36.89]],[[73.73,36.89],[73.77,36.89]],[[73.77,36.89],[73.91,36.85]],[[73.91,36.85],[74.0,36.82]],[[74.0,36.82],[74.04,36.83]],[[74.04,36.83],[74.19,36.9]],[[74.19,36.9],[74.43,36.98]],[[74.43,36.98],[74.54,37.02]],[[74.54,37.02],[74.6,37.04]],[[74.6,37.04],[74.69,37.04]],[[74.69,37.04],[74.77,37.01]],[[74.77,37.01],[74.84,36.98]],[[74.84,36.98],[74.89,36.95]],[[74.89,36.95],[74.95,36.97]],[[74.95,36.97],[75.05,36.99]],[[75.05,36.99],[75.15,36.97]],[[75.15,36.97],[75.35,36.91]],[[75.35,36.91],[75.38,36.88]],[[75.38,36.88],[75.42,36.74]],[[75.42,36.74],[75.46,36.73]],[[75.46,36.73],[75.57,36.76]],[[75.57,36.76],[75.67,36.74]],[[75.67,36.74],[75.77,36.69]],[[75.77,36.69],[75.84,36.65]],[[75.84,36.65],[75.88,36.6]],[[75.88,36.6],[75.93,36.52]],[[75.93,36.52],[75.95,36.46]],[[75.95,36.46],[75.97,36.38]],[[75.97,36.38],[75.97,36.17]],[[75.97,36.17],[75.93,36.13]],[[75.93,36.13],[75.9,36.09]],[[75.9,36.09],[75.91,36.05]],[[75.91,36.05],[75.95,36.02]],[[75.95,36.02],[76.01,36.0]],[[76.01,36.0],[76.07,35.98]],[[76.07,35.98],[76.1,35.95]],[[76.1,35.95],[76.15,35.83]],[[76.15,35.83],[76.18,35.81]],[[76.18,35.81],[76.25,35.81]],[[76.25,35.81],[76.39,35.84]],[[76.39,35.84],[76.5,35.88]],[[76.5,35.88],[76.55,35.89]],[[76.55,35.89],[76.56,35.77]],[[76.56,35.77],[76.63,35.73]],[[76.63,35.73],[76.73,35.68]],[[76.73,35.68],[76.77,35.66]],[[90.0,47.88],[89.96,47.89]],[[89.96,47.89],[89.91,47.84]],[[89.91,47.84],[89.83,47.82]],[[89.83,47.82],[89.78,47.83]],[[89.78,47.83],[89.73,47.85]],[[89.73,47.85],[89.69,47.88]],[[89.69,47.88],[89.64,47.91]],[[89.64,47.91],[89.56,48.0]],[[89.56,48.0],[89.48,48.03]],[[89.48,48.03],[89.33,48.02]],[[89.33,48.02],[89.2,47.98]],[[89.2,47.98],[89.12,47.99]],[[89.12,47.99],[89.05,48.0]],[[89.05,48.0],[88.97,48.05]],[[88.97,48.05],[88.92,48.09]],[[88.92,48.09],[88.84,48.1]],[[88.84,48.1],[88.68,48.17]],[[88.68,48.17],[88.58,48.22]],[[88.58,48.22],[88.57,48.32]],[[88.57,48.32],[88.52,48.38]],[[88.52,48.38],[88.41,48.4]],[[88.41,48.4],[88.31,48.47]],[[88.31,48.47],[88.16,48.51]],[[88.16,48.51],[88.06,48.54]],[[88.06,48.54],[87.98,48.56]],[[87.98,48.56],[87.97,48.58]],[[87.97,48.58],[87.97,48.6]],[[87.97,48.6],[88.01,48.64]],[[88.01,48.64],[88.05,48.68]],[[88.05,48.68],[88.06,48.71]],[[88.06,48.71],[88.03,48.74]],[[88.03,48.74],[87.94,48.77]],[[87.94,48.77],[87.83,48.79]],[[87.83,48.79],[87.81,48.84]],[[87.81,48.84],[87.74,48.88]],[[87.74,48.88],[87.75,48.92]],[[87.75,48.92],[87.81,48.95]],[[87.81,48.95],[87.86,48.97]],[[87.86,48.97],[87.87,49.0]],[[87.87,49.0],[87.83,49.03]],[[87.83,49.03],[87.82,49.08]],[[87.82,49.08],[87.83,49.12]],[[87.83,49.12],[87.81,49.16]],[[70.95,42.25],[70.89,42.29]],[[70.89,42.29],[70.89,42.34]],[[70.89,42.34],[70.95,42.42]],[[70.95,42.42],[71.0,42.46]],[[71.0,42.46],[71.02,42.54]],[[71.02,42.54],[71.09,42.59]],[[71.09,42.59],[71.17,42.67]],[[71.17,42.67],[71.26,42.73]],[[71.26,42.73],[71.42,42.78]],[[71.42,42.78],[71.51,42.77]],[[71.51,42.77],[71.6,42.78]],[[71.6,42.78],[71.73,42.82]],[[71.73,42.82],[71.76,42.82]],[[71.76,42.82],[71.82,42.82]],[[71.82,42.82],[72.16,42.76]],[[72.16,42.76],[72.28,42.76]],[[72.28,42.76],[72.54,42.68]],[[72.54,42.68],[72.67,42.66]],[[72.67,42.66],[72.75,42.64]],[[72.75,42.64],[72.79,42.6]],[[72.79,42.6],[72.86,42.56]],[[72.86,42.56],[73.19,42.53]],[[73.19,42.53],[73.28,42.5]],[[73.28,42.5],[73.32,42.47]],[[73.32,42.47],[73.41,42.42]],[[73.41,42.42],[73.49,42.41]],[[73.49,42.41],[73.42,42.59]],[[73.42,42.59],[73.45,42.7]],[[73.45,42.7],[73.56,43.0]],[[73.56,43.0],[73.61,43.05]],[[73.61,43.05],[73.72,43.09]],[[73.72,43.09],[73.89,43.13]],[[73.89,43.13],[73.95,43.2]],[[73.95,43.2],[74.09,43.19]],[[74.09,43.19],[74.15,43.19]],[[74.15,43.19],[74.19,43.21]],[[74.19,43.21],[74.21,43.24]],[[74.21,43.24],[74.36,43.18]],[[74.36,43.18],[74.62,43.06]],[[74.62,43.06],[74.82,42.98]],[[74.82,42.98],[75.05,42.9]],[[75.05,42.9],[75.37,42.84]],[[75.37,42.84],[75.64,42.81]],[[75.64,42.81],[75.68,42.83]],[[75.68,42.83],[75.79,42.93]],[[75.79,42.93],[75.84,42.94]],[[75.84,42.94],[75.93,42.93]],[[75.93,42.93],[76.22,42.92]],[[76.22,42.92],[76.51,42.92]],[[76.51,42.92],[76.65,42.93]],[[76.65,42.93],[76.94,42.97]],[[76.94,42.97],[76.99,42.97]],[[76.99,42.97],[77.06,42.97]],[[77.06,42.97],[77.24,42.91]],[[77.24,42.91],[77.37,42.9]],[[77.37,42.9],[77.46,42.9]],[[77.46,42.9],[77.51,42.9]],[[77.51,42.9],[77.62,42.9]],[[77.62,42.9],[77.8,42.9]],[[77.8,42.9],[78.02,42.86]],[[78.02,42.86],[78.29,42.86]],[[78.29,42.86],[78.38,42.87]],[[78.38,42.87],[78.52,42.86]],[[78.52,42.86],[78.64,42.83]],[[78.64,42.83],[78.79,42.79]],[[78.79,42.79],[78.89,42.77]],[[78.89,42.77],[78.95,42.77]],[[78.95,42.77],[79.06,42.76]],[[79.06,42.76],[79.13,42.78]],[[79.13,42.78],[79.16,42.76]],[[79.16,42.76],[79.2,42.67]],[[79.2,42.67],[79.3,42.6]],[[79.3,42.6],[79.37,42.55]],[[79.37,42.55],[79.43,42.48]],[[79.43,42.48],[79.49,42.46]],[[79.49,42.46],[79.6,42.46]],[[79.6,42.46],[79.8,42.44]],[[79.8,42.44],[79.92,42.41]],[[79.92,42.41],[80.07,42.3]],[[80.07,42.3],[80.21,42.19]],[[80.21,42.19],[80.23,42.13]],[[80.23,42.13],[80.25,42.06]],[[80.25,42.06],[80.24,42.04]],[[80.24,42.04],[80.22,42.03]],[[80.22,42.03],[79.91,42.01]],[[79.91,42.01],[79.84,42.0]],[[79.84,42.0],[79.77,41.9]],[[79.77,41.9],[79.5,41.82]],[[79.5,41.82],[79.35,41.78]],[[79.35,41.78],[79.29,41.78]],[[79.29,41.78],[79.15,41.72]],[[79.15,41.72],[78.74,41.56]],[[78.74,41.56],[78.54,41.46]],[[78.54,41.46],[78.44,41.42]],[[78.44,41.42],[78.36,41.37]],[[78.36,41.37],[78.35,41.33]],[[78.35,41.33],[78.35,41.28]],[[78.35,41.28],[78.12,41.08]],[[78.12,41.08],[77.96,41.05]],[[77.96,41.05],[77.82,41.06]],[[77.82,41.06],[77.72,41.02]],[[77.72,41.02],[77.58,40.99]],[[77.58,40.99],[77.28,41.01]],[[77.28,41.01],[77.18,41.01]],[[77.18,41.01],[76.99,41.04]],[[76.99,41.04],[76.91,41.02]],[[76.91,41.02],[76.82,40.98]],[[76.82,40.98],[76.71,40.82]],[[76.71,40.82],[76.66,40.78]],[[76.66,40.78],[76.64,40.74]],[[76.64,40.74],[76.62,40.66]],[[76.62,40.66],[76.58,40.58]],[[76.58,40.58],[76.52,40.51]],[[76.52,40.51],[76.48,40.45]],[[76.48,40.45],[76.4,40.39]],[[76.4,40.39],[76.32,40.35]],[[76.32,40.35],[76.26,40.43]],[[76.26,40.43],[76.21,40.41]],[[76.21,40.41],[76.16,40.38]],[[76.16,40.38],[76.06,40.39]],[[76.06,40.39],[76.0,40.37]],[[76.0,40.37],[75.87,40.3]],[[75.87,40.3],[75.68,40.31]],[[75.68,40.31],[75.66,40.33]],[[75.66,40.33],[75.62,40.52]],[[75.62,40.52],[75.58,40.61]],[[75.58,40.61],[75.56,40.63]],[[75.56,40.63],[75.52,40.63]],[[75.52,40.63],[75.24,40.48]],[[75.24,40.48],[75.11,40.45]],[[75.11,40.45],[75.0,40.45]],[[75.0,40.45],[74.87,40.49]],[[74.87,40.49],[74.84,40.48]],[[74.84,40.48],[74.81,40.46]],[[74.81,40.46],[74.8,40.43]],[[74.8,40.43],[74.84,40.34]],[[74.84,40.34],[74.83,40.33]],[[74.83,40.33],[74.77,40.33]],[[74.77,40.33],[74.68,40.31]],[[74.68,40.31],[74.61,40.27]],[[74.61,40.27],[74.41,40.14]],[[74.41,40.14],[74.24,40.09]],[[74.24,40.09],[74.09,40.07]],[[74.09,40.07],[74.02,40.06]],[[74.02,40.06],[73.99,40.04]],[[73.99,40.04],[73.94,39.98]],[[73.94,39.98],[73.88,39.88]],[[73.88,39.88],[73.86,39.83]],[[73.86,39.83],[73.84,39.8]],[[73.84,39.8],[73.84,39.76]],[[73.84,39.76],[73.88,39.71]],[[73.88,39.71],[73.91,39.61]],[[73.91,39.61],[73.91,39.58]],[[73.91,39.58],[73.87,39.53]],[[73.87,39.53],[73.82,39.49]],[[73.82,39.49],[73.72,39.46]],[[73.72,39.46],[73.63,39.45]],[[50.18,44.85],[50.1,44.83],[50.0,44.94],[50.02,45.04],[50.11,45.08],[50.12,45.06],[50.05,45.01],[50.04,44.95],[50.1,44.88],[50.18,44.85]],[[50.31,44.97],[50.28,44.96],[50.26,45.02],[50.29,45.08],[50.35,45.08],[50.31,44.97]],[[52.68,45.41],[52.6,45.43],[52.55,45.47],[52.61,45.53],[52.66,45.52],[52.69,45.46],[52.68,45.41]],[[52.49,41.78],[52.46,42.1],[52.62,42.43],[52.64,42.56],[52.6,42.76],[52.49,42.82],[52.27,42.8],[52.18,42.87],[51.9,42.87],[51.7,43.1],[51.62,43.16],[51.3,43.17],[51.3,43.48],[51.06,43.75],[50.83,44.19],[50.68,44.27],[50.33,44.33],[50.28,44.36],[50.25,44.46],[50.3,44.58],[50.41,44.62],[50.86,44.63],[51.05,44.53],[51.18,44.5],[51.38,44.54],[51.54,44.53],[51.43,44.6],[51.31,44.62],[51.06,44.81],[51.01,44.92],[51.04,44.98],[51.25,45.12],[51.29,45.23],[51.42,45.36],[51.54,45.34],[51.73,45.4],[52.43,45.4],[52.91,45.32],[53.2,45.33],[53.09,45.41],[52.84,45.5],[52.77,45.57],[52.89,45.78],[53.04,45.97],[53.14,46.19],[53.11,46.41],[53.06,46.48],[53.08,46.55],[53.17,46.67],[53.07,46.86],[52.92,46.95],[52.48,46.99],[52.34,46.89],[52.14,46.83],[52.01,46.9],[51.74,46.93],[51.62,47.03],[51.18,47.11],[50.92,47.04],[50.58,46.88],[50.42,46.88],[50.31,46.79],[49.89,46.6],[49.35,46.52],[49.36,46.41],[49.29,46.44],[49.21,46.39],[49.23,46.34]],[[87.32,49.09],[87.23,49.11]],[[87.23,49.11],[87.05,49.11]],[[87.05,49.11],[86.94,49.1]],[[86.94,49.1],[86.89,49.09]],[[86.89,49.09],[86.81,49.05]],[[86.81,49.05],[86.75,49.01]],[[86.75,49.01],[86.73,48.94]],[[86.73,48.94],[86.76,48.86]],[[86.76,48.86],[86.72,48.7]],[[86.72,48.7],[86.66,48.64]],[[86.66,48.64],[86.55,48.53]],[[86.55,48.53],[86.48,48.51]],[[86.48,48.51],[86.37,48.49]],[[86.37,48.49],[86.27,48.45]],[[86.27,48.45],[86.06,48.42]],[[86.06,48.42],[85.83,48.41]],[[85.83,48.41],[85.75,48.39]],[[85.75,48.39],[85.69,48.31]],[[85.69,48.31],[85.65,48.25]],[[85.65,48.25],[85.63,48.2]],[[85.63,48.2],[85.56,48.05]],[[85.56,48.05],[85.53,47.92]],[[85.53,47.92],[85.56,47.75]],[[85.56,47.75],[85.59,47.56]],[[85.59,47.56],[85.59,47.49]],[[85.59,47.49],[85.64,47.4]],[[85.64,47.4],[85.67,47.34]],[[85.67,47.34],[85.66,47.25]],[[85.66,47.25],[85.58,47.19]],[[85.58,47.19],[85.53,47.1]],[[85.53,47.1],[85.48,47.06]],[[85.48,47.06],[85.36,47.05]],[[85.36,47.05],[85.23,47.04]],[[85.23,47.04],[85.11,46.96]],[[85.11,46.96],[85.01,46.91]],[[85.01,46.91],[84.86,46.84]],[[84.86,46.84],[84.79,46.83]],[[84.79,46.83],[84.75,46.86]],[[84.75,46.86],[84.72,46.94]],[[84.72,46.94],[84.67,46.97]],[[84.67,46.97],[84.59,46.97]],[[84.59,46.97],[84.53,46.98]],[[84.53,46.98],[84.34,47.0]],[[84.34,47.0],[84.22,46.99]],[[84.22,46.99],[84.12,46.98]],[[84.12,46.98],[84.02,46.97]],[[84.02,46.97],[83.83,47.0]],[[83.83,47.0],[83.71,47.02]],[[83.71,47.02],[83.63,47.04]],[[83.63,47.04],[83.44,47.11]],[[83.44,47.11],[83.19,47.19]],[[83.19,47.19],[83.09,47.21]],[[83.09,47.21],[83.03,47.19]],[[83.03,47.19],[83.02,47.14]],[[83.02,47.14],[83.0,47.03]],[[83.0,47.03],[82.97,46.97]],[[82.97,46.97],[82.8,46.62]],[[82.8,46.62],[82.69,46.39]],[[82.69,46.39],[82.56,46.16]],[[82.56,46.16],[82.51,46.01]],[[82.51,46.01],[82.43,45.81]],[[82.43,45.81],[82.35,45.67]],[[82.35,45.67],[82.32,45.59]],[[82.32,45.59],[82.31,45.56]],[[82.31,45.56],[82.33,45.52]],[[82.33,45.52],[82.45,45.47]],[[82.45,45.47],[82.58,45.44]],[[82.58,45.44],[82.61,45.42]],[[82.61,45.42],[82.63,45.37]],[[82.63,45.37],[82.62,45.29]],[[82.62,45.29],[82.6,45.22]],[[82.6,45.22],[82.56,45.16]],[[82.56,45.16],[82.52,45.13]],[[82.52,45.13],[82.48,45.12]],[[82.48,45.12],[82.4,45.16]],[[82.4,45.16],[82.32,45.21]],[[82.32,45.21],[82.27,45.22]],[[82.27,45.22],[82.12,45.19]],[[82.12,45.19],[81.99,45.16]],[[81.99,45.16],[81.94,45.16]],[[81.94,45.16],[81.87,45.18]],[[81.87,45.18],[81.79,45.23]],[[81.79,45.23],[81.76,45.31]],[[81.76,45.31],[81.69,45.35]],[[81.69,45.35],[81.6,45.31]],[[81.6,45.31],[81.33,45.25]],[[81.33,45.25],[81.04,45.17]],[[81.04,45.17],[80.85,45.13]],[[80.85,45.13],[80.78,45.14]],[[80.78,45.14],[80.63,45.13]],[[80.63,45.13],[80.51,45.1]],[[80.51,45.1],[80.41,45.08]],[[80.41,45.08],[80.23,45.03]],[[80.23,45.03],[80.06,45.01]],[[80.06,45.01],[79.95,44.94]],[[79.95,44.94],[79.87,44.88]],[[79.87,44.88],[79.88,44.86]],[[79.88,44.86],[79.93,44.83]],[[79.93,44.83],[80.0,44.8]],[[80.0,44.8],[80.13,44.8]],[[80.13,44.8],[80.26,44.81]],[[80.26,44.81],[80.36,44.77]],[[80.36,44.77],[80.46,44.75]],[[80.46,44.75],[80.48,44.71]],[[80.48,44.71],[80.46,44.68]],[[80.46,44.68],[80.4,44.68]],[[80.4,44.68],[80.38,44.66]],[[80.38,44.66],[80.39,44.63]],[[80.39,44.63],[80.36,44.55]],[[80.36,44.55],[80.34,44.44]],[[80.34,44.44],[80.35,44.33]],[[80.35,44.33],[80.37,44.22]],[[80.37,44.22],[80.36,44.17]],[[80.36,44.17],[80.36,44.1]],[[80.36,44.1],[80.4,44.05]],[[80.4,44.05],[80.43,43.95]],[[80.43,43.95],[80.5,43.89]],[[80.5,43.89],[80.59,43.69]],[[80.59,43.69],[80.65,43.56]],[[80.65,43.56],[80.7,43.43]],[[80.7,43.43],[80.67,43.35]],[[80.67,43.35],[80.67,43.31]],[[80.67,43.31],[80.73,43.27]],[[80.73,43.27],[80.76,43.2]],[[80.76,43.2],[80.79,43.16]],[[80.79,43.16],[80.78,43.12]],[[80.78,43.12],[80.75,43.1]],[[80.75,43.1],[80.62,43.13]],[[80.62,43.13],[80.51,43.09]],[[80.51,43.09],[80.39,43.04]],[[80.39,43.04],[80.37,43.02]],[[80.37,43.02],[80.37,43.0]],[[80.37,43.0],[80.38,42.97]],[[80.38,42.97],[80.45,42.94]],[[80.45,42.94],[80.54,42.91]],[[80.54,42.91],[80.54,42.87]],[[80.54,42.87],[80.42,42.86]],[[80.42,42.86],[80.25,42.8]],[[80.25,42.8],[80.2,42.73]],[[80.2,42.73],[80.17,42.67]],[[80.17,42.67],[80.16,42.63]],[[80.16,42.63],[80.18,42.52]],[[80.18,42.52],[80.21,42.4]],[[80.21,42.4],[80.26,42.27]],[[80.26,42.27],[80.26,42.24]],[[80.26,42.24],[80.23,42.21]],[[80.23,42.21],[80.21,42.19]],[[44.77,37.14],[44.77,37.14]],[[44.77,37.14],[44.8,37.06]],[[44.8,37.06],[44.88,36.8]],[[44.88,36.8],[44.93,36.77]],[[44.93,36.77],[44.98,36.74]],[[44.98,36.74],[45.02,36.7]],[[45.02,36.7],[45.03,36.66]],[[45.03,36.66],[45.03,36.6]],[[45.03,36.6],[45.03,36.53]],[[45.03,36.53],[45.05,36.47]],[[45.05,36.47],[45.08,36.43]],[[45.08,36.43],[45.11,36.41]],[[45.11,36.41],[45.16,36.41]],[[45.16,36.41],[45.21,36.4]],[[45.21,36.4],[45.24,36.36]],[[45.24,36.36],[45.35,36.05]],[[45.35,36.05],[45.36,36.02]],[[45.36,36.02],[45.41,36.0]],[[45.41,36.0],[45.48,36.01]],[[45.48,36.01],[45.56,35.98]],[[45.56,35.98],[45.65,35.93]],[[45.65,35.93],[45.72,35.84]],[[45.72,35.84],[45.78,35.82]],[[45.78,35.82],[45.94,35.84]],[[45.94,35.84],[46.17,35.82]],[[46.17,35.82],[46.27,35.77]],[[46.27,35.77],[46.26,35.74]],[[46.26,35.74],[46.18,35.71]],[[46.18,35.71],[46.04,35.67]],[[46.04,35.67],[46.0,35.61]],[[46.0,35.61],[45.97,35.52]],[[45.97,35.52],[45.98,35.48]],[[45.98,35.48],[46.01,35.42]],[[46.01,35.42],[46.11,35.32]],[[46.11,35.32],[46.12,35.28]],[[46.12,35.28],[46.14,35.23]],[[46.14,35.23],[46.15,35.2]],[[46.15,35.2],[46.13,35.13]],[[46.13,35.13],[46.04,35.08]],[[46.04,35.08],[45.92,35.03]],[[45.92,35.03],[45.68,34.8]],[[45.68,34.8],[45.66,34.75]],[[45.66,34.75],[45.66,34.61]],[[45.66,34.61],[45.64,34.57]],[[45.64,34.57],[45.56,34.57]],[[45.56,34.57],[45.5,34.58]],[[45.5,34.58],[45.5,34.53]],[[45.5,34.53],[45.46,34.47]],[[45.46,34.47],[45.44,34.42]],[[45.44,34.42],[45.53,34.28]],[[45.53,34.28],[45.54,34.22]],[[45.54,34.22],[45.53,34.15]],[[45.53,34.15],[45.45,34.04]],[[45.45,34.04],[45.4,33.97]],[[45.4,33.97],[45.41,33.95]],[[45.41,33.95],[45.47,33.93]],[[45.47,33.93],[45.67,33.69]],[[45.67,33.69],[45.74,33.6]],[[45.74,33.6],[45.82,33.62]],[[45.82,33.62],[45.85,33.62]],[[45.85,33.62],[45.88,33.61]],[[45.88,33.61],[45.89,33.58]],[[45.89,33.58],[45.89,33.55]],[[45.89,33.55],[45.87,33.49]],[[45.87,33.49],[45.98,33.47]],[[45.98,33.47],[46.02,33.42]],[[46.02,33.42],[46.15,33.23]],[[46.15,33.23],[46.14,33.17]],[[46.14,33.17],[46.08,33.09]],[[46.08,33.09],[46.08,33.03]],[[46.08,33.03],[46.09,33.0]],[[61.26,35.62],[61.28,35.55]],[[61.28,35.55],[61.28,35.51]],[[61.28,35.51],[61.25,35.47]],[[61.25,35.47],[61.23,35.42]],[[61.23,35.42],[61.2,35.36]],[[61.2,35.36],[61.19,35.31]],[[61.19,35.31],[61.14,35.29]],[[61.14,35.29],[61.1,35.27]],[[61.1,35.27],[61.11,35.21]],[[61.11,35.21],[61.13,35.16]],[[61.13,35.16],[61.15,35.09]],[[61.15,35.09],[61.12,35.05]],[[61.12,35.05],[61.11,35.0]],[[61.11,35.0],[61.07,34.92]],[[61.07,34.92],[61.08,34.86]],[[61.08,34.86],[61.04,34.8]],[[61.04,34.8],[60.99,34.75]],[[60.99,34.75],[60.96,34.71]],[[60.96,34.71],[60.95,34.65]],[[60.95,34.65],[60.91,34.63]],[[60.91,34.63],[60.85,34.59]],[[60.85,34.59],[60.8,34.55]],[[60.8,34.55],[60.74,34.54]],[[60.74,34.54],[60.73,34.52]],[[60.73,34.52],[60.74,34.49]],[[60.74,34.49],[60.76,34.48]],[[60.76,34.48],[60.8,34.42]],[[60.8,34.42],[60.89,34.32]],[[60.89,34.32],[60.64,34.31]],[[60.64,34.31],[60.57,34.22]],[[60.57,34.22],[60.49,34.09]],[[60.49,34.09],[60.53,33.84]],[[60.53,33.84],[60.49,33.71]],[[60.49,33.71],[60.51,33.64]],[[60.51,33.64],[60.57,33.59]],[[60.57,33.59],[60.65,33.56]],[[60.65,33.56],[60.81,33.56]],[[60.81,33.56],[60.91,33.54]],[[60.91,33.54],[60.92,33.51]],[[60.92,33.51],[60.86,33.46]],[[60.86,33.46],[60.77,33.36]],[[60.77,33.36],[60.72,33.32]],[[60.72,33.32],[60.56,33.14]],[[60.56,33.14],[60.56,33.06]],[[60.56,33.06],[60.58,33.0]],[[44.82,39.65],[44.84,39.63]],[[44.84,39.63],[45.0,39.42]],[[45.0,39.42],[45.07,39.36]],[[45.07,39.36],[45.11,39.31]],[[45.11,39.31],[45.14,39.25]],[[45.14,39.25],[45.19,39.22]],[[45.19,39.22],[45.26,39.19]],[[45.26,39.19],[45.34,39.14]],[[45.34,39.14],[45.39,39.1]],[[45.39,39.1],[45.48,39.01]],[[45.48,39.01],[45.58,38.97]],[[45.58,38.97],[45.92,38.91]],[[45.92,38.91],[46.11,38.88]],[[46.11,38.88],[46.17,38.87]],[[46.17,38.87],[46.32,38.91]],[[46.32,38.91],[46.49,38.91]],[[46.49,38.91],[46.55,38.9]],[[46.55,38.9],[46.78,39.09]],[[46.78,39.09],[46.85,39.15]],[[46.85,39.15],[46.99,39.18]],[[46.99,39.18],[47.07,39.25]],[[47.07,39.25],[47.19,39.34]],[[47.19,39.34],[47.34,39.42]],[[47.34,39.42],[47.48,39.5]],[[47.48,39.5],[47.58,39.54]],[[47.58,39.54],[47.77,39.65]],[[47.77,39.65],[47.89,39.69]],[[47.89,39.69],[48.0,39.68]],[[48.0,39.68],[48.15,39.56]],[[48.15,39.56],[48.28,39.45]],[[48.28,39.45],[48.32,39.4]],[[48.32,39.4],[48.26,39.35]],[[48.26,39.35],[48.14,39.31]],[[48.14,39.31],[48.11,39.28]],[[48.11,39.28],[48.1,39.24]],[[48.1,39.24],[48.11,39.2]],[[48.11,39.2],[48.13,39.17]],[[48.13,39.17],[48.27,39.1]],[[48.27,39.1],[48.29,39.06]],[[48.29,39.06],[48.29,39.02]],[[48.29,39.02],[48.28,38.99]],[[48.28,38.99],[48.24,38.98]],[[48.24,38.98],[48.14,38.96]],[[48.14,38.96],[48.05,38.94]],[[48.05,38.94],[48.02,38.91]],[[48.02,38.91],[47.99,38.88]],[[47.99,38.88],[48.0,38.85]],[[48.0,38.85],[48.02,38.82]],[[48.02,38.82],[48.2,38.72]],[[48.2,38.72],[48.23,38.69]],[[48.23,38.69],[48.26,38.64]],[[48.26,38.64],[48.31,38.61]],[[48.31,38.61],[48.38,38.61]],[[48.38,38.61],[48.42,38.59]],[[48.42,38.59],[48.59,38.41]],[[48.59,38.41],[48.64,38.4]],[[48.64,38.4],[48.84,38.44]],[[48.84,38.44],[48.87,38.44]],[[48.87,38.44],[48.93,38.02],[49.08,37.67],[49.37,37.52],[50.13,37.41],[50.21,37.34],[50.34,37.15],[50.53,37.01],[51.12,36.74],[51.76,36.61],[52.19,36.62],[53.77,36.93],[53.92,36.93],[53.68,36.85],[53.77,36.82],[53.97,36.82],[54.02,36.85],[54.02,36.9],[53.91,37.34]],[[77.05,35.11],[77.17,35.17]],[[77.17,35.17],[77.29,35.24]],[[77.29,35.24],[77.42,35.3]],[[77.42,35.3],[77.57,35.38]],[[77.57,35.38],[77.7,35.44]],[[77.7,35.44],[77.8,35.5]],[[77.8,35.5],[77.8,35.49]],[[77.8,35.49],[77.81,35.48]],[[77.81,35.48],[77.85,35.46]],[[77.85,35.46],[77.89,35.45]],[[77.89,35.45],[77.95,35.47]],[[77.95,35.47],[78.01,35.49]],[[78.01,35.49],[78.04,35.48]],[[78.04,35.48],[78.05,35.45]],[[78.05,35.45],[78.01,35.31]],[[78.01,35.31],[78.01,35.25]],[[78.01,35.25],[78.08,35.13]],[[78.08,35.13],[78.16,34.95]],[[78.16,34.95],[78.24,34.77]],[[78.24,34.77],[78.28,34.65]],[[78.28,34.65],[78.33,34.61]],[[78.33,34.61],[78.52,34.56]],[[78.52,34.56],[78.67,34.52]],[[78.67,34.52],[78.76,34.45]],[[78.76,34.45],[78.86,34.39]],[[78.86,34.39],[78.94,34.35]],[[78.94,34.35],[78.97,34.3]],[[78.97,34.3],[78.98,34.26]],[[78.98,34.26],[78.97,34.23]],[[78.97,34.23],[78.93,34.19]],[[78.93,34.19],[78.75,34.09]],[[78.75,34.09],[78.73,34.06]],[[78.73,34.06],[78.73,34.01]],[[78.73,34.01],[78.76,33.89]],[[78.76,33.89],[78.78,33.81]],[[78.78,33.81],[78.79,33.65]],[[78.79,33.65],[78.8,33.5]],[[78.8,33.5],[78.87,33.43]],[[78.87,33.43],[78.92,33.39]],[[78.92,33.39],[78.95,33.35]],[[78.95,33.35],[79.01,33.29]],[[79.01,33.29],[79.07,33.25]],[[79.07,33.25],[79.11,33.23]],[[79.11,33.23],[79.14,33.17]],[[79.14,33.17],[79.12,33.11]],[[79.12,33.11],[79.1,33.05]],[[79.1,33.05],[79.11,33.02]],[[79.11,33.02],[79.15,33.0]],[[79.15,33.0],[79.15,33.0]],[[46.43,41.89],[46.41,41.86]],[[46.41,41.86],[46.35,41.79]],[[46.35,41.79],[46.3,41.76]],[[46.3,41.76],[46.25,41.75]],[[46.25,41.75],[46.2,41.74]],[[46.2,41.74],[46.18,41.7]],[[46.18,41.7],[46.18,41.66]],[[46.18,41.66],[46.19,41.62]],[[46.19,41.62],[46.2,41.61]],[[46.2,41.61],[46.25,41.6]],[[46.25,41.6],[46.31,41.51]],[[46.31,41.51],[46.38,41.46]],[[46.38,41.46],[46.51,41.41]],[[46.51,41.41],[46.62,41.34]],[[46.62,41.34],[46.67,41.29]],[[46.67,41.29],[46.66,41.25]],[[46.66,41.25],[46.63,41.16]],[[46.63,41.16],[46.53,41.09]],[[46.53,41.09],[46.46,41.07]],[[46.46,41.07],[46.43,41.08]],[[46.43,41.08],[46.38,41.1]],[[46.38,41.1],[46.28,41.15]],[[46.28,41.15],[46.17,41.2]],[[46.17,41.2],[46.09,41.18]],[[46.09,41.18],[46.03,41.17]],[[46.03,41.17],[45.92,41.19]],[[45.92,41.19],[45.79,41.22]],[[45.79,41.22],[45.73,41.26]],[[45.73,41.26],[45.7,41.29]],[[45.7,41.29],[45.72,41.34]],[[45.72,41.34],[45.42,41.43]],[[45.42,41.43],[45.28,41.45]],[[45.28,41.45],[45.22,41.42]],[[45.22,41.42],[45.0,41.29]],[[45.0,41.29],[44.98,41.28]],[[44.98,41.28],[44.81,41.26]],[[44.81,41.26],[44.81,41.25]],[[44.81,41.25],[44.85,41.22]],[[44.85,41.22],[44.84,41.21]],[[44.84,41.21],[44.56,41.21]],[[44.56,41.21],[44.47,41.19]],[[44.47,41.19],[44.23,41.21]],[[44.23,41.21],[44.15,41.2]],[[44.15,41.2],[44.08,41.18]],[[44.08,41.18],[44.0,41.17]],[[77.8,35.5],[77.72,35.48]],[[77.72,35.48],[77.57,35.47]],[[77.57,35.47],[77.52,35.47]],[[77.52,35.47],[77.45,35.48]],[[77.45,35.48],[77.29,35.51]],[[77.29,35.51],[77.09,35.55]],[[77.09,35.55],[76.88,35.61]],[[76.88,35.61],[76.77,35.66]],[[74.54,37.02],[74.53,37.03]],[[74.53,37.03],[74.5,37.06]],[[74.5,37.06],[74.38,37.14]],[[74.38,37.14],[74.37,37.16]],[[74.37,37.16],[74.56,37.24]],[[74.56,37.24],[74.67,37.27]],[[74.67,37.27],[74.73,37.29]],[[74.73,37.29],[74.74,37.29]],[[74.74,37.29],[74.77,37.25]],[[74.77,37.25],[74.84,37.23]],[[74.84,37.23],[74.89,37.23]],[[44.77,39.7],[44.87,39.72]],[[44.87,39.72],[45.03,39.77]],[[45.03,39.77],[45.08,39.74]],[[45.08,39.74],[45.12,39.7]],[[45.12,39.7],[45.15,39.66]],[[45.15,39.66],[45.15,39.58]],[[45.15,39.58],[45.17,39.57]],[[45.17,39.57],[45.25,39.6]],[[45.25,39.6],[45.29,39.57]],[[45.29,39.57],[45.35,39.53]],[[45.35,39.53],[45.46,39.49]],[[45.46,39.49],[45.61,39.55]],[[45.61,39.55],[45.69,39.56]],[[45.69,39.56],[45.75,39.56]],[[45.75,39.56],[45.78,39.55]],[[45.78,39.55],[45.8,39.49]],[[45.8,39.49],[45.78,39.42]],[[45.78,39.42],[45.77,39.38]],[[45.77,39.38],[45.8,39.35]],[[45.8,39.35],[45.92,39.28]],[[45.92,39.28],[45.98,39.24]],[[45.98,39.24],[45.95,39.18]],[[45.95,39.18],[46.05,39.02]],[[46.05,39.02],[46.08,38.95]],[[46.08,38.95],[46.11,38.88]],[[46.49,38.91],[46.49,39.0]],[[46.49,39.0],[46.49,39.07]],[[46.49,39.07],[46.48,39.11]],[[46.48,39.11],[46.4,39.17]],[[46.4,39.17],[46.4,39.19]],[[46.4,39.19],[46.42,39.21]],[[46.42,39.21],[46.48,39.2]],[[46.48,39.2],[46.55,39.2]],[[46.55,39.2],[46.58,39.22]],[[46.58,39.22],[46.51,39.3]],[[46.51,39.3],[46.44,39.35]],[[46.44,39.35],[46.38,39.38]],[[46.38,39.38],[46.37,39.4]],[[46.37,39.4],[46.37,39.42]],[[46.37,39.42],[46.38,39.43]],[[46.38,39.43],[46.48,39.48]],[[46.48,39.48],[46.49,39.51]],[[46.49,39.51],[46.48,39.56]],[[46.48,39.56],[46.32,39.62]],[[46.32,39.62],[46.2,39.59]],[[46.2,39.59],[46.09,39.66]],[[46.09,39.66],[46.03,39.72]],[[46.03,39.72],[45.94,39.78]],[[45.94,39.78],[45.86,39.81]],[[45.86,39.81],[45.79,39.88]],[[45.79,39.88],[45.66,39.96]],[[45.66,39.96],[45.58,39.98]],[[45.58,39.98],[45.58,39.99]],[[45.58,39.99],[45.6,40.0]],[[45.6,40.0],[45.63,40.01]],[[45.63,40.01],[45.86,40.01]],[[45.86,40.01],[45.89,40.02]],[[45.89,40.02],[45.9,40.06]],[[45.9,40.06],[45.93,40.1]],[[45.93,40.1],[45.97,40.17]],[[45.97,40.17],[45.96,40.23]],[[45.96,40.23],[45.74,40.33]],[[45.74,40.33],[45.57,40.42]],[[45.57,40.42],[45.45,40.53]],[[45.45,40.53],[45.38,40.64]],[[45.38,40.64],[45.38,40.67]],[[45.38,40.67],[45.4,40.71]],[[45.4,40.71],[45.58,40.8]],[[45.58,40.8],[45.59,40.83]],[[45.59,40.83],[45.59,40.85]],[[45.59,40.85],[45.52,40.9]],[[45.52,40.9],[45.44,40.95]],[[45.44,40.95],[45.42,40.99]],[[45.42,40.99],[45.37,41.0]],[[45.37,41.0],[45.27,41.01]],[[45.27,41.01],[45.11,41.07]],[[45.11,41.07],[45.07,41.08]],[[45.07,41.08],[45.06,41.09]],[[45.06,41.09],[45.07,41.1]],[[45.07,41.1],[45.19,41.13]],[[45.19,41.13],[45.19,41.15]],[[45.19,41.15],[45.15,41.18]],[[45.15,41.18],[45.08,41.2]],[[45.08,41.2],[45.02,41.25]],[[45.02,41.25],[45.0,41.29]],[[48.57,41.84],[48.66,41.79],[49.05,41.37],[49.23,41.03],[49.46,40.8],[49.78,40.58],[49.99,40.58],[50.18,40.5],[50.31,40.41],[50.37,40.28],[50.14,40.32],[49.92,40.32],[49.55,40.19],[49.48,40.09],[49.32,39.61],[49.36,39.35],[49.27,39.29],[49.17,39.03],[49.12,39.0],[49.11,39.08],[49.01,39.13],[48.85,38.84],[48.87,38.44]],[[45.55,40.62],[45.56,40.65]],[[45.56,40.65],[45.53,40.66]],[[45.53,40.66],[45.5,40.66]],[[45.5,40.66],[45.48,40.65]],[[45.48,40.65],[45.48,40.61]],[[45.48,40.61],[45.51,40.6]],[[45.51,40.6],[45.55,40.62]],[[45.02,41.03],[45.0,41.02]],[[45.0,41.02],[44.97,41.03]],[[44.97,41.03],[44.96,41.05]],[[44.96,41.05],[44.96,41.08]],[[44.96,41.08],[44.99,41.09]],[[44.99,41.09],[45.02,41.08]],[[45.02,41.08],[45.03,41.05]],[[45.03,41.05],[45.02,41.03]]]}},{"type":"Feature","properties":{"kind":"lake"},"geometry":{"type":"MultiLineString","coordinates":[[[78.29,42.56],[78.16,42.55],[77.87,42.43],[77.85,42.37],[77.72,42.24],[77.51,42.18],[76.92,42.19],[76.58,42.29],[76.26,42.33],[76.22,42.44],[76.23,42.46],[76.97,42.61],[77.34,42.67],[77.53,42.65],[77.68,42.7],[78.06,42.73],[78.25,42.73],[78.12,42.64],[78.14,42.61],[78.3,42.59],[78.29,42.56]],[[84.43,47.86],[84.39,47.82]],[[84.39,47.82],[84.36,47.73]],[[84.36,47.73],[84.3,47.7]],[[84.3,47.7],[84.24,47.71]],[[84.24,47.71],[83.99,47.84]],[[83.99,47.84],[83.77,47.95]],[[83.77,47.95],[83.62,48.01]],[[83.62,48.01],[83.44,48.05]],[[83.44,48.05],[83.26,48.09]],[[83.26,48.09],[83.08,48.18]],[[83.08,48.18],[83.03,48.21]],[[83.03,48.21],[83.04,48.25]],[[83.04,48.25],[83.18,48.25]],[[83.18,48.25],[83.28,48.26]],[[83.28,48.26],[83.44,48.27]],[[83.44,48.27],[83.5,48.3]],[[83.5,48.3],[83.53,48.38]],[[83.53,48.38],[83.46,48.43]],[[83.46,48.43],[83.39,48.5]],[[83.39,48.5],[83.39,48.55]],[[83.39,48.55],[83.42,48.6]],[[83.42,48.6],[83.42,48.74]],[[83.42,48.74],[83.47,48.86]],[[83.47,48.86],[83.59,48.96]],[[83.59,48.96],[83.75,49.04]],[[83.75,49.04],[83.87,49.06]],[[83.87,49.06],[84.04,49.11]],[[84.04,49.11],[84.12,49.16]],[[84.12,49.16],[84.1,49.24]],[[84.1,49.24],[83.97,49.33]],[[83.97,49.33],[83.85,49.42]],[[83.85,49.42],[83.72,49.44]],[[83.72,49.44],[83.66,49.44]],[[83.66,49.44],[83.61,49.49]],[[83.61,49.49],[83.54,49.53]],[[83.54,49.53],[83.48,49.54]],[[83.48,49.54],[83.43,49.57]],[[83.43,49.57],[83.36,49.63]],[[83.36,49.63],[83.36,49.64]],[[83.36,49.64],[83.39,49.65]],[[83.39,49.65],[83.61,49.61]],[[83.61,49.61],[83.74,49.63]],[[83.74,49.63],[83.89,49.72]],[[83.89,49.72],[83.96,49.73]],[[83.96,49.73],[83.96,49.7]],[[83.96,49.7],[83.82,49.63]],[[83.82,49.63],[83.8,49.6]],[[83.8,49.6],[83.76,49.56]],[[83.76,49.56],[83.73,49.54]],[[83.73,49.54],[83.82,49.48]],[[83.82,49.48],[84.29,49.24]],[[84.29,49.24],[84.36,49.16]],[[84.36,49.16],[84.33,49.12]],[[84.33,49.12],[84.15,49.09]],[[84.15,49.09],[83.86,48.99]],[[83.86,48.99],[83.78,48.98]],[[83.78,48.98],[83.61,48.91]],[[83.61,48.91],[83.51,48.81]],[[83.51,48.81],[83.49,48.72]],[[83.49,48.72],[83.52,48.62]],[[83.52,48.62],[83.61,48.44]],[[83.61,48.44],[83.77,48.41]],[[83.77,48.41],[83.92,48.4]],[[83.92,48.4],[83.91,48.37]],[[83.91,48.37],[83.68,48.35]],[[83.68,48.35],[83.6,48.3]],[[83.6,48.3],[83.58,48.27]],[[83.58,48.27],[83.63,48.24]],[[83.63,48.24],[83.74,48.2]],[[83.74,48.2],[83.88,48.15]],[[83.88,48.15],[84.05,48.08]],[[84.05,48.08],[84.17,48.06]],[[84.17,48.06],[84.33,48.02]],[[84.33,48.02],[84.47,47.97]],[[84.47,47.97],[84.52,47.93]],[[84.52,47.93],[84.43,47.86]],[[45.75,37.7],[45.75,37.58],[45.86,37.43],[45.83,37.34],[45.66,37.29],[45.54,37.13],[45.45,37.15],[45.36,37.23],[45.29,37.44],[45.23,37.76],[45.09,37.89],[45.08,37.99],[45.19,38.11],[45.17,38.14],[45.02,38.14],[45.03,38.19],[45.11,38.26],[45.36,38.26],[45.46,38.17],[45.49,38.07],[45.44,37.81],[45.48,37.75],[45.67,37.74],[45.75,37.7]],[[57.82,41.7],[57.68,41.64],[57.35,41.57],[57.17,41.73],[57.06,41.72],[57.09,41.97],[57.18,42.19],[57.27,42.3],[57.39,42.33],[57.55,42.26],[57.63,42.15],[57.61,42.11],[57.68,42.01],[57.7,41.91],[57.84,41.84],[57.87,41.77],[57.82,41.7]],[[76.87,54.88],[77.13,54.92],[77.25,54.86],[77.33,54.97],[77.43,55.02],[77.64,55.06],[78.03,54.98],[78.05,54.93],[77.64,54.8],[77.64,54.77],[77.69,54.74],[77.74,54.66],[77.6,54.61],[77.52,54.66],[77.25,54.72],[76.73,54.72],[76.75,54.83],[76.87,54.88]],[[81.75,45.87],[81.43,46.06],[81.4,46.3],[81.44,46.39],[81.53,46.45],[81.76,46.43],[81.91,46.35],[81.98,46.28],[82.13,45.76],[81.75,45.87]],[[87.26,41.89],[87.1,41.9],[86.75,41.83],[86.73,41.85],[86.83,42.07],[86.89,42.11],[87.32,42.02],[87.38,41.85],[87.26,41.89]],[[89.51,37.49],[89.14,37.54],[89.08,37.59],[89.4,37.63],[89.64,37.58],[89.65,37.51],[89.51,37.49]],[[79.74,52.93],[79.73,52.84],[79.6,52.84],[79.45,52.9],[79.4,52.94],[79.39,53.01],[79.47,53.1],[79.64,53.14],[79.74,53.09],[79.81,53.0],[79.74,52.93]],[[73.33,53.11],[73.09,53.27],[72.96,53.25],[72.92,53.28],[73.03,53.38],[73.2,53.4],[73.4,53.36],[73.41,53.07],[73.33,53.11]],[[80.31,55.49],[79.99,55.39],[79.9,55.39],[79.82,55.42],[79.82,55.45],[80.09,55.55],[80.3,55.56],[80.33,55.54],[80.31,55.49]],[[44.97,40.54],[44.99,40.61],[45.01,40.61],[45.37,40.48],[45.6,40.32],[45.66,40.24],[45.65,40.19],[45.54,40.16],[45.28,40.16],[45.18,40.39],[44.97,40.54]],[[73.27,41.75],[72.97,41.76],[72.84,41.74],[72.68,41.66],[72.64,41.69],[72.71,41.77],[72.66,41.87],[72.69,41.9],[72.94,41.88],[73.3,41.78],[73.27,41.75]],[[58.37,45.13],[58.42,45.29],[58.55,45.41],[58.57,45.53],[58.64,45.59],[58.65,45.72],[58.71,45.83],[58.84,45.83],[58.81,45.88],[58.85,45.92],[59.06,45.89],[59.08,45.94],[59.18,45.93],[59.24,45.99],[59.3,46.0],[59.24,45.89],[59.1,45.9],[58.91,45.79],[58.87,45.6],[58.77,45.56],[58.67,45.46],[58.63,45.26],[58.68,45.13],[58.55,45.01],[58.59,44.99],[58.57,44.92],[58.62,44.82],[58.56,44.77],[58.52,44.57],[58.48,44.5],[58.36,44.42],[58.26,44.43],[58.24,44.52],[58.32,44.6],[58.22,44.85],[58.31,45.06],[58.37,45.13]],[[60.75,46.12],[60.82,46.2],[60.72,46.37],[60.58,46.29],[60.35,46.4],[60.13,46.36],[59.99,46.44],[60.0,46.57],[60.29,46.7],[60.37,46.62],[60.41,46.5],[60.46,46.62],[60.58,46.56],[60.74,46.63],[60.75,46.65],[60.53,46.75],[60.52,46.78],[60.58,46.78],[60.81,46.75],[60.78,46.58],[60.89,46.47],[61.13,46.45],[61.26,46.5],[61.2,46.58],[61.3,46.61],[61.31,46.65],[61.53,46.68],[61.28,46.45],[61.3,46.38],[61.22,46.24],[60.98,46.17],[60.86,46.09],[60.78,46.09],[60.75,46.12]],[[79.02,46.77],[79.05,46.81],[79.12,46.8],[79.22,46.72],[79.25,46.65],[79.22,46.61],[79.09,46.58],[79.02,46.45],[78.89,46.37],[78.47,46.39],[78.44,46.38],[78.45,46.3],[78.32,46.35],[78.08,46.33],[77.87,46.43],[77.65,46.42],[77.43,46.5],[77.28,46.47],[77.17,46.49],[77.1,46.45],[76.74,46.53],[76.24,46.55],[76.03,46.51],[75.87,46.54],[75.61,46.51],[75.49,46.6],[75.49,46.63],[75.56,46.65],[75.55,46.67],[75.46,46.67],[75.4,46.61],[75.45,46.5],[75.41,46.47],[75.35,46.47],[75.3,46.52],[75.21,46.43],[75.09,46.46],[74.91,46.4],[74.77,46.11],[74.55,46.01],[74.28,46.0],[74.25,45.94],[74.3,45.79],[74.24,45.75],[74.31,45.67],[74.09,45.51],[74.08,45.35],[74.15,45.32],[74.16,45.27],[74.14,45.1],[74.1,45.06],[74.1,44.99],[74.02,45.01],[74.0,45.19],[73.84,45.26],[73.61,45.51],[73.44,45.61],[73.44,45.66],[73.53,45.73],[73.44,45.81],[73.49,45.83],[73.56,45.82],[73.74,46.01],[73.66,46.06],[73.65,46.15],[73.68,46.18],[74.02,46.2],[73.95,46.29],[74.02,46.37],[74.09,46.43],[74.37,46.52],[74.52,46.62],[74.63,46.75],[74.94,46.82],[75.09,46.81],[75.34,46.73],[75.83,46.82],[76.2,46.78],[76.3,46.75],[76.45,46.64],[76.67,46.67],[76.79,46.63],[77.08,46.62],[77.17,46.56],[77.27,46.61],[77.64,46.66],[77.86,46.65],[78.14,46.59],[78.3,46.47],[78.35,46.51],[78.36,46.62],[78.4,46.66],[78.48,46.62],[78.58,46.72],[78.63,46.75],[78.76,46.72],[78.82,46.79],[78.93,46.79],[78.99,46.75],[79.02,46.77]],[[48.38,54.23],[48.42,54.6],[48.55,54.65],[48.75,54.68],[48.81,54.73],[48.86,54.87],[48.86,55.01],[49.16,55.16],[49.17,55.29],[49.05,55.44],[49.06,55.48],[49.12,55.48],[49.23,55.34],[49.3,55.32],[49.36,55.34],[49.33,55.38],[49.33,55.52],[49.37,55.54],[49.37,55.46],[49.45,55.4],[49.79,55.38],[50.0,55.42],[50.09,55.46],[50.38,55.43],[51.25,55.53],[51.41,55.49],[51.47,55.51],[51.47,55.59],[51.4,55.68],[51.41,55.77],[51.48,55.83],[51.46,55.7],[51.52,55.63],[51.63,55.65],[51.76,55.72],[51.94,55.7],[51.89,55.67],[51.75,55.68],[51.71,55.59],[51.55,55.56],[51.52,55.5],[51.41,55.44],[51.21,55.49],[51.17,55.46],[51.22,55.4],[51.18,55.36],[51.07,55.42],[50.88,55.45],[50.73,55.41],[49.89,55.29],[49.46,55.11],[49.45,55.05],[49.4,55.02],[49.22,55.02],[49.01,54.97],[48.94,54.9],[48.97,54.83],[49.1,54.8],[48.99,54.73],[48.97,54.64],[48.9,54.58],[48.91,54.55],[48.86,54.46],[48.53,54.39],[48.5,54.33],[48.55,54.24],[48.8,54.13],[48.85,54.05],[49.02,54.02],[49.73,54.23],[49.74,54.19],[49.54,54.13],[49.44,54.04],[49.22,53.93],[49.22,53.88],[49.35,53.77],[49.37,53.69],[49.13,53.82],[49.09,53.79],[49.06,53.61],[49.09,53.53],[49.25,53.5],[49.88,53.49],[49.9,53.46],[49.85,53.43],[49.49,53.44],[49.32,53.4],[49.23,53.28],[48.8,53.28],[48.76,53.32],[49.14,53.31],[49.21,53.34],[49.2,53.37],[48.99,53.44],[49.01,53.46],[48.87,53.65],[48.9,53.83],[48.81,53.94],[48.57,54.1],[48.39,54.17],[48.38,54.23]],[[68.16,41.2],[68.39,41.16],[68.46,41.11],[68.28,41.05],[68.14,41.05],[68.02,41.1],[67.93,41.22],[67.99,41.25],[68.16,41.2]],[[69.37,50.72],[69.62,50.68],[69.61,50.61],[69.27,50.59],[69.05,50.43],[69.06,50.36],[69.24,50.35],[69.26,50.25],[68.94,50.18],[68.69,50.27],[68.78,50.51],[68.86,50.57],[69.09,50.56],[69.23,50.62],[69.29,50.69],[69.37,50.72]],[[64.69,52.69],[64.95,52.91],[64.98,52.88],[64.97,52.73],[64.65,52.55],[64.52,52.52],[64.5,52.54],[64.69,52.69]]]}}]}